id,address,latitude,longitude,location,situation
52882987c9155f3780000001,71st Street,41.764641,-87.686772,"[-87.686772, 41.764641]",straight on no stopping
52882994c9155f3780000002,71st Street,41.764877,-87.666635,"[-87.666635, 41.764877]",straight on no stopping
52882995c9155f3780000003,71st Street,41.765008,-87.657067,"[-87.657067, 41.765008]",straight on no stopping
52882997c9155f3780000004,71st Street,41.765153,-87.647751,"[-87.647751, 41.765153]",straight on no stopping
52882998c9155f3780000005,71st Street,41.765204,-87.644371,"[-87.644371, 41.765204]",straight on no stopping
52882999c9155f3780000006,71st St,41.765644,-87.618476,"[-87.618476, 41.765644]",bumper to bumper
5288299ac9155f3780000007,71st St,41.76626,-87.574226,"[-87.574226, 41.76626]",straight on no stopping
5288299bc9155f3780000008,Commercial Ave,41.739836,-87.551476,"[-87.551476, 41.739836]",bumper to bumper
528829fac9155f0118000001,71st Street,41.764641,-87.686772,"[-87.686772, 41.764641]",go slow
528829fac9155f0118000002,71st Street,41.764877,-87.666635,"[-87.666635, 41.764877]",go slow
528829fac9155f0118000003,71st Street,41.765008,-87.657067,"[-87.657067, 41.765008]",bumper to bumper
528829fac9155f0118000004,71st Street,41.765153,-87.647751,"[-87.647751, 41.765153]",bumper to bumper
528829fac9155f0118000005,71st Street,41.765204,-87.644371,"[-87.644371, 41.765204]",bumper to bumper
528829fac9155f0118000006,71st St,41.765644,-87.618476,"[-87.618476, 41.765644]",bumper to bumper
528829fac9155f0118000007,71st St,41.76626,-87.574226,"[-87.574226, 41.76626]",straight on no stopping
528829fac9155f0118000008,Commercial Ave,41.739836,-87.551476,"[-87.551476, 41.739836]",go slow
528829fac9155f0118000009,Commercial Ave,41.732725,-87.55132,"[-87.55132, 41.732725]",straight on no stopping
528829fac9155f011800000a,Commercial Ave,41.724444,-87.551124,"[-87.551124, 41.724444]",go slow
528829fac9155f011800000b,Commercial Ave,41.718183,-87.551016,"[-87.551016, 41.718183]",straight on no stopping
528829fac9155f011800000c,Cottage Grove Ave,41.820171,-87.606798,"[-87.606798, 41.820171]",go slow
528829fac9155f011800000d,Cottage Grove Ave,41.807987,-87.606532,"[-87.606532, 41.807987]",go slow
528829fac9155f011800000e,Cottage Grove Ave,41.797881,-87.606302,"[-87.606302, 41.797881]",go slow
528829fac9155f011800000f,Cottage Grove Ave,41.78269,-87.605979,"[-87.605979, 41.78269]",straight on no stopping
528829fac9155f0118000010,Cottage Grove Ave,41.775779,-87.605826,"[-87.605826, 41.775779]",bumper to bumper
528829fac9155f0118000011,Cottage Grove Ave,41.770685,-87.605711,"[-87.605711, 41.770685]",straight on no stopping
528829fac9155f0118000012,Cottage Grove Ave,41.760801,-87.605452,"[-87.605452, 41.760801]",straight on no stopping
528829fac9155f0118000013,Cottage Grove Ave,41.734791,-87.604779,"[-87.604779, 41.734791]",straight on no stopping
528829fac9155f0118000014,Cottage Grove Ave,41.710922,-87.60573,"[-87.60573, 41.710922]",straight on no stopping
528829fac9155f0118000015,Damen Ave,41.859378,-87.676043,"[-87.676043, 41.859378]",straight on no stopping
528829fac9155f0118000016,Damen Ave,41.854926,-87.67592,"[-87.67592, 41.854926]",bumper to bumper
528829fac9155f0118000017,Damen Ave,41.850395,-87.67579,"[-87.67579, 41.850395]",straight on no stopping
528829fac9155f0118000018,Damen Ave,41.844875,-87.675652,"[-87.675652, 41.844875]",go slow
528829fac9155f0118000019,Damen Ave,41.830389,-87.675279,"[-87.675279, 41.830389]",bumper to bumper
528829fac9155f011800001a,Damen Ave,41.827625,-87.675208,"[-87.675208, 41.827625]",bumper to bumper
528829fac9155f011800001b,Damen Ave,41.803741,-87.674569,"[-87.674569, 41.803741]",go slow
528829fac9155f011800001c,Damen Ave,41.785746,-87.674075,"[-87.674075, 41.785746]",straight on no stopping
528829fac9155f011800001d,Damen Ave,41.770409,-87.673671,"[-87.673671, 41.770409]",bumper to bumper
528829fac9155f011800001e,Damen Ave,41.757363,-87.673336,"[-87.673336, 41.757363]",bumper to bumper
528829fac9155f011800001f,Dr Martin Luther King Jr Dr,41.838419,-87.617465,"[-87.617465, 41.838419]",go slow
528829fac9155f0118000020,Dr Martin Luther King Jr Dr,41.825982,-87.617039,"[-87.617039, 41.825982]",bumper to bumper
528829fac9155f0118000021,Dr Martin Luther King Jr Dr,41.814852,-87.616741,"[-87.616741, 41.814852]",straight on no stopping
528829fac9155f0118000022,Dr Martin Luther King Jr Dr,41.795094,-87.615989,"[-87.615989, 41.795094]",straight on no stopping
528829fac9155f0118000023,Dr Martin Luther King Jr Dr,41.754187,-87.615027,"[-87.615027, 41.754187]",bumper to bumper
528829fac9155f0118000024,Dr Martin Luther King Jr Dr,41.726239,-87.614254,"[-87.614254, 41.726239]",straight on no stopping
52882d34c9155f8015000001,41.88682729,-87.6269017
528829fac9155f0118000025,Dr Martin Luther King Jr Dr,41.706494,-87.613745,"[-87.613745, 41.706494]",bumper to bumper
528829fac9155f0118000026,Exchange Ave,41.755798,-87.55646,"[-87.55646, 41.755798]",go slow
528829fac9155f0118000027,Exchange Ave,41.7504,-87.5528,"[-87.5528, 41.7504]",bumper to bumper
528829fac9155f0118000028,Indiana Ave,41.863938,-87.622471,"[-87.622471, 41.863938]",go slow
528829fac9155f0118000029,Indiana Ave,41.85566,-87.62228,"[-87.62228, 41.85566]",bumper to bumper
528829fac9155f011800002a,Indiana Ave,41.832167,-87.621788,"[-87.621788, 41.832167]",bumper to bumper
528829fac9155f011800002b,Indiana Ave,41.828022,-87.621694,"[-87.621694, 41.828022]",go slow
528829fac9155f011800002c,Indiana Ave,41.787779,-87.620665,"[-87.620665, 41.787779]",bumper to bumper
528829fac9155f011800002d,Indianapolis Ave,41.707611,-87.529702,"[-87.529702, 41.707611]",go slow
528829fac9155f011800002e,Jeffery Blvd,41.775215,-87.575158,"[-87.575158, 41.775215]",straight on no stopping
528829fac9155f011800002f,Jeffery Blvd,41.77038,-87.576414,"[-87.576414, 41.77038]",bumper to bumper
528829fac9155f0118000030,Jeffery Blvd,41.761454,-87.576196,"[-87.576196, 41.761454]",bumper to bumper
528829fac9155f0118000031,Jeffery Blvd,41.747152,-87.575902,"[-87.575902, 41.747152]",bumper to bumper
528829fac9155f0118000032,Jeffery Blvd,41.737902,-87.575714,"[-87.575714, 41.737902]",bumper to bumper
528829fac9155f0118000033,Jeffery Blvd,41.739269,-87.575753,"[-87.575753, 41.739269]",go slow
528829fac9155f0118000034,Jeffery Ave,41.719732,-87.57529,"[-87.57529, 41.719732]",go slow
528829fac9155f0118000035,Dr Martin Luther King Jr Dr,41.760689,-87.615174,"[-87.615174, 41.760689]",bumper to bumper
528829fac9155f0118000036,Dr Martin Luther King Jr Dr,41.849344,-87.618459,"[-87.618459, 41.849344]",go slow
528829fac9155f0118000037,Lake Park Ave,41.797367,-87.587322,"[-87.587322, 41.797367]",straight on no stopping
528829fac9155f0118000038,Michigan Ave,41.865924,-87.624115,"[-87.624115, 41.865924]",straight on no stopping
528829fac9155f0118000039,Michigan Ave,41.850595,-87.623745,"[-87.623745, 41.850595]",straight on no stopping
528829fac9155f011800003a,Michigan Ave,41.839562,-87.623493,"[-87.623493, 41.839562]",straight on no stopping
528829fac9155f011800003b,Michigan Ave,41.834369,-87.623323,"[-87.623323, 41.834369]",bumper to bumper
528829fac9155f011800003c,Michigan Ave,41.826807,-87.623149,"[-87.623149, 41.826807]",go slow
528829fac9155f011800003d,Michigan Ave,41.811191,-87.622886,"[-87.622886, 41.811191]",bumper to bumper
528829fac9155f011800003e,Michigan Ave,41.796652,-87.622518,"[-87.622518, 41.796652]",go slow
528829fac9155f011800003f,Michigan Ave,41.718658,-87.620521,"[-87.620521, 41.718658]",straight on no stopping
528829fac9155f0118000040,South Shore Dr,41.770241,-87.566558,"[-87.566558, 41.770241]",bumper to bumper
528829fac9155f0118000041,South Shore Dr,41.756313,-87.552698,"[-87.552698, 41.756313]",bumper to bumper
528829fac9155f0118000042,South Shore Dr,41.766314,-87.565472,"[-87.565472, 41.766314]",straight on no stopping
528829fac9155f0118000043,State St,41.863436,-87.62733,"[-87.62733, 41.863436]",bumper to bumper
528829fac9155f0118000044,State St,41.833661,-87.626468,"[-87.626468, 41.833661]",bumper to bumper
528829fac9155f0118000045,State St,41.810903,-87.626128,"[-87.626128, 41.810903]",bumper to bumper
528829fac9155f0118000046,State St,41.792077,-87.625634,"[-87.625634, 41.792077]",go slow
528829fac9155f0118000047,State St,41.777072,-87.62526,"[-87.62526, 41.777072]",bumper to bumper
528829fac9155f0118000048,State St,41.757046,-87.624736,"[-87.624736, 41.757046]",straight on no stopping
528829fac9155f0118000049,State St,41.745812,-87.624391,"[-87.624391, 41.745812]",go slow
528829fac9155f011800004a,State St,41.728281,-87.623913,"[-87.623913, 41.728281]",go slow
528829fac9155f011800004b,State St,41.713246,-87.623646,"[-87.623646, 41.713246]",go slow
528829fac9155f011800004c,Wentworth Ave,41.853156,-87.631785,"[-87.631785, 41.853156]",go slow
528829fac9155f011800004d,Wentworth Ave,41.773651,-87.629987,"[-87.629987, 41.773651]",straight on no stopping
528829fac9155f011800004e,Wentworth Ave,41.720659,-87.628638,"[-87.628638, 41.720659]",bumper to bumper
528829fbc9155f011800004f,Archer Ave,41.831501,-87.67584,"[-87.67584, 41.831501]",bumper to bumper
528829fbc9155f0118000050,Archer Ave,41.853553,-87.633392,"[-87.633392, 41.853553]",straight on no stopping
528829fbc9155f0118000051,Archer Ave,41.807818,-87.714468,"[-87.714468, 41.807818]",go slow
528829fbc9155f0118000052,Archer Ave,41.849975,-87.64032,"[-87.64032, 41.849975]",go slow
528829fbc9155f0118000053,Archer Ave,41.835106,-87.669954,"[-87.669954, 41.835106]",straight on no stopping
528829fbc9155f0118000054,Ashland Ave,41.876934,-87.666676,"[-87.666676, 41.876934]",bumper to bumper
528829fbc9155f0118000055,Ashland Ave,41.872567,-87.66656,"[-87.66656, 41.872567]",straight on no stopping
528829fbc9155f0118000056,Ashland Ave,41.861874,-87.666256,"[-87.666256, 41.861874]",go slow
528829fbc9155f0118000057,Ashland Ave,41.781444,-87.664267,"[-87.664267, 41.781444]",go slow
528829fbc9155f0118000058,Ashland Ave,41.775834,-87.66412,"[-87.66412, 41.775834]",bumper to bumper
528829fbc9155f0118000059,Ashland Ave,41.763965,-87.663752,"[-87.663752, 41.763965]",bumper to bumper
528829fbc9155f011800005a,Ashland Ave,41.757724,-87.663608,"[-87.663608, 41.757724]",go slow
528829fbc9155f011800005b,Ashland Ave,41.745469,-87.663314,"[-87.663314, 41.745469]",go slow
528829fbc9155f011800005c,Ashland Ave,41.733288,-87.662994,"[-87.662994, 41.733288]",go slow
528829fbc9155f011800005d,Clark St,41.873009,-87.630632,"[-87.630632, 41.873009]",go slow
528829fbc9155f011800005e,Clark St,41.869893,-87.630511,"[-87.630511, 41.869893]",straight on no stopping
528829fbc9155f011800005f,Clark St,41.861478,-87.630255,"[-87.630255, 41.861478]",straight on no stopping
528829fbc9155f0118000060,Clark St,41.855964,-87.630176,"[-87.630176, 41.855964]",bumper to bumper
528829fbc9155f0118000061,Clark St,41.853467,-87.630093,"[-87.630093, 41.853467]",straight on no stopping
528829fbc9155f0118000062,Halsted St,41.87346,-87.647091,"[-87.647091, 41.87346]",bumper to bumper
528829fbc9155f0118000063,Halsted St,41.865313,-87.646862,"[-87.646862, 41.865313]",bumper to bumper
528829fbc9155f0118000064,Halsted St,41.829513,-87.646078,"[-87.646078, 41.829513]",go slow
528829fbc9155f0118000065,Halsted St,41.796466,-87.645213,"[-87.645213, 41.796466]",straight on no stopping
528829fbc9155f0118000066,Halsted St,41.78453,-87.644905,"[-87.644905, 41.78453]",go slow
528829fbc9155f0118000067,Halsted St,41.771775,-87.644579,"[-87.644579, 41.771775]",straight on no stopping
528829fbc9155f0118000068,Halsted St,41.760683,-87.644298,"[-87.644298, 41.760683]",bumper to bumper
528829fbc9155f0118000069,Halsted St,41.735001,-87.643587,"[-87.643587, 41.735001]",straight on no stopping
528829fbc9155f011800006a,Halsted St,41.719968,-87.643173,"[-87.643173, 41.719968]",straight on no stopping
528829fbc9155f011800006b,Vincennes Ave,41.75002,-87.634415,"[-87.634415, 41.75002]",go slow
528829fbc9155f011800006c,Vincennes Ave,41.731171,-87.647028,"[-87.647028, 41.731171]",go slow
528829fbc9155f011800006d,Vincennes Ave,41.720798,-87.650838,"[-87.650838, 41.720798]",straight on no stopping
528829fbc9155f011800006e,Vincennes Ave,41.710702,-87.654574,"[-87.654574, 41.710702]",straight on no stopping
528829fbc9155f011800006f,Vincennes Ave,41.698034,-87.65927,"[-87.65927, 41.698034]",bumper to bumper
528829fbc9155f0118000070,Western Ave,41.872427,-87.686197,"[-87.686197, 41.872427]",go slow
528829fbc9155f0118000071,Western Ave,41.847006,-87.685499,"[-87.685499, 41.847006]",go slow
528829fbc9155f0118000072,Western Ave,41.834882,-87.684561,"[-87.684561, 41.834882]",bumper to bumper
528829fbc9155f0118000073,Western Ave,41.820278,-87.684745,"[-87.684745, 41.820278]",bumper to bumper
528829fbc9155f0118000074,Western Ave,41.77249,-87.683456,"[-87.683456, 41.77249]",bumper to bumper
528829fbc9155f0118000075,Western Ave,41.761813,-87.683164,"[-87.683164, 41.761813]",straight on no stopping
528829fbc9155f0118000076,Western Ave,41.756743,-87.683025,"[-87.683025, 41.756743]",straight on no stopping
528829fbc9155f0118000077,Western Ave,41.730457,-87.682356,"[-87.682356, 41.730457]",straight on no stopping
528829fbc9155f0118000078,Western Ave,41.712676,-87.68181,"[-87.68181, 41.712676]",bumper to bumper
528829fbc9155f0118000079,Western Ave,41.699963,-87.681415,"[-87.681415, 41.699963]",bumper to bumper
528829fbc9155f011800007a,Western Blvd,41.79459,-87.684058,"[-87.684058, 41.79459]",go slow
528829fbc9155f011800007b,Stony Island Ave,41.71675,-87.585043,"[-87.585043, 41.71675]",go slow
528829fbc9155f011800007c,Stony Island Ave,41.755119,-87.586125,"[-87.586125, 41.755119]",go slow
528829fbc9155f011800007d,Stony Island Ave,41.740553,-87.58573,"[-87.58573, 41.740553]",bumper to bumper
528829fbc9155f011800007e,Stony Island Ave,41.724124,-87.585159,"[-87.585159, 41.724124]",bumper to bumper
528829fbc9155f011800007f,Stony Island Ave,41.745515,-87.585819,"[-87.585819, 41.745515]",go slow
528829fbc9155f0118000080,Stony Island Ave,41.769698,-87.586238,"[-87.586238, 41.769698]",bumper to bumper
528829fbc9155f0118000081,Stony Island Ave,41.792127,-87.586689,"[-87.586689, 41.792127]",go slow
528829fbc9155f0118000082,92nd St,41.72824,-87.552415,"[-87.552415, 41.72824]",straight on no stopping
528829fbc9155f0118000083,92nd St,41.728253,-87.550704,"[-87.550704, 41.728253]",straight on no stopping
528829fbc9155f0118000084,99th Street,41.714033,-87.657301,"[-87.657301, 41.714033]",go slow
528829fbc9155f0118000085,99th Street,41.713939,-87.664213,"[-87.664213, 41.713939]",go slow
528829fbc9155f0118000086,100th St,41.713352,-87.558074,"[-87.558074, 41.713352]",go slow
528829fbc9155f0118000087,100th St,41.713772,-87.54362,"[-87.54362, 41.713772]",go slow
528829fbc9155f0118000088,Avenue L,41.720702,-87.536499,"[-87.536499, 41.720702]",go slow
528829fbc9155f0118000089,Avenue L,41.711118,-87.536485,"[-87.536485, 41.711118]",go slow
528829fbc9155f011800008a,Beverly Ave,41.719205,-87.662247,"[-87.662247, 41.719205]",straight on no stopping
528829fbc9155f011800008b,Longwood Dr,41.713044,-87.668914,"[-87.668914, 41.713044]",straight on no stopping
528829fbc9155f011800008c,Harbor Ave,41.729262,-87.541841,"[-87.541841, 41.729262]",bumper to bumper
528829fbc9155f011800008d,Mackinaw Ave,41.732854,-87.542962,"[-87.542962, 41.732854]",go slow
528829fbc9155f011800008e,Yates Blvd,41.764222,-87.566483,"[-87.566483, 41.764222]",go slow
528829fbc9155f011800008f,63rd Street,41.779224,-87.680473,"[-87.680473, 41.779224]",bumper to bumper
528829fbc9155f0118000090,63rd Street,41.779519,-87.661134,"[-87.661134, 41.779519]",bumper to bumper
528829fbc9155f0118000091,63rd St,41.779852,-87.638388,"[-87.638388, 41.779852]",go slow
528829fbc9155f0118000092,63rd St,41.780078,-87.621062,"[-87.621062, 41.780078]",bumper to bumper
528829fbc9155f0118000093,67th St,41.773084,-87.608939,"[-87.608939, 41.773084]",bumper to bumper
528829fbc9155f0118000094,67th St,41.773298,-87.589932,"[-87.589932, 41.773298]",bumper to bumper
528829fbc9155f0118000095,67th St,41.773376,-87.582603,"[-87.582603, 41.773376]",bumper to bumper
528829fbc9155f0118000096,75th Street,41.758155,-87.629625,"[-87.629625, 41.758155]",bumper to bumper
528829fbc9155f0118000097,75th St,41.758265,-87.622945,"[-87.622945, 41.758265]",straight on no stopping
528829fbc9155f0118000098,75th St,41.758455,-87.612457,"[-87.612457, 41.758455]",go slow
528829fbc9155f0118000099,75th St,41.758814,-87.581651,"[-87.581651, 41.758814]",straight on no stopping
528829fbc9155f011800009a,76th Street,41.755721,-87.671249,"[-87.671249, 41.755721]",straight on no stopping
528829fbc9155f011800009b,76th Street,41.756101,-87.642566,"[-87.642566, 41.756101]",bumper to bumper
528829fbc9155f011800009c,76th St,41.756542,-87.617335,"[-87.617335, 41.756542]",bumper to bumper
528829fbc9155f011800009d,76th St,41.756617,-87.613108,"[-87.613108, 41.756617]",go slow
528829fbc9155f011800009e,76th St,41.756982,-87.582699,"[-87.582699, 41.756982]",go slow
528829fbc9155f011800009f,79th Street,41.749936,-87.695059,"[-87.695059, 41.749936]",go slow
528829fbc9155f01180000a0,79th Street,41.750449,-87.657022,"[-87.657022, 41.750449]",straight on no stopping
528829fbc9155f01180000a1,79th Street,41.750534,-87.651099,"[-87.651099, 41.750534]",go slow
528829fbc9155f01180000a2,79th Street,41.750722,-87.638461,"[-87.638461, 41.750722]",straight on no stopping
528829fbc9155f01180000a3,79th St,41.75097,-87.623726,"[-87.623726, 41.75097]",go slow
528829fbc9155f01180000a4,79th St,41.750997,-87.621988,"[-87.621988, 41.750997]",bumper to bumper
528829fbc9155f01180000a5,79th St,41.75131,-87.603145,"[-87.603145, 41.75131]",bumper to bumper
528829fbc9155f01180000a6,79th St,41.751849,-87.557322,"[-87.557322, 41.751849]",go slow
528829fbc9155f01180000a7,83rd Street,41.74303,-87.666333,"[-87.666333, 41.74303]",go slow
528829fbc9155f01180000a8,83rdStreet,41.743249,-87.651157,"[-87.651157, 41.743249]",go slow
528829fbc9155f01180000a9,83rd St,41.743649,-87.624723,"[-87.624723, 41.743649]",bumper to bumper
528829fbc9155f01180000aa,83rd Street,41.743855,-87.612049,"[-87.612049, 41.743855]",bumper to bumper
528829fbc9155f01180000ab,83rd Street,41.744106,-87.593706,"[-87.593706, 41.744106]",bumper to bumper
528829fbc9155f01180000ac,83rd Street,41.744086,-87.595315,"[-87.595315, 41.744086]",go slow
528829fbc9155f01180000ad,83rd Street,41.744615,-87.554455,"[-87.554455, 41.744615]",bumper to bumper
528829fbc9155f01180000ae,83rd St,41.744682,-87.549764,"[-87.549764, 41.744682]",straight on no stopping
528829fbc9155f01180000af,87th Street,41.735742,-87.666475,"[-87.666475, 41.735742]",bumper to bumper
528829fbc9155f01180000b0,87th Street,41.735844,-87.659417,"[-87.659417, 41.735844]",bumper to bumper
528829fbc9155f01180000b1,87th Street,41.73606,-87.644455,"[-87.644455, 41.73606]",bumper to bumper
528829fbc9155f01180000b2,87th Street,41.73604,-87.638359,"[-87.638359, 41.73604]",bumper to bumper
528829fbc9155f01180000b3,87th Street,41.736013,-87.63131,"[-87.63131, 41.736013]",go slow
528829fbc9155f01180000b4,87th Street,41.736399,-87.621325,"[-87.621325, 41.736399]",go slow
528829fbc9155f01180000b5,87th Street,41.736694,-87.601489,"[-87.601489, 41.736694]",straight on no stopping
528829fbc9155f01180000b6,87th Street,41.737079,-87.574126,"[-87.574126, 41.737079]",straight on no stopping
528829fbc9155f01180000b7,87th Street,41.737414,-87.548768,"[-87.548768, 41.737414]",straight on no stopping
528829fbc9155f01180000b8,95th Street,41.721037,-87.675323,"[-87.675323, 41.721037]",bumper to bumper
528829fbc9155f01180000b9,95th Street,41.721119,-87.669564,"[-87.669564, 41.721119]",go slow
528829fbc9155f01180000ba,95th Street,41.721324,-87.653942,"[-87.653942, 41.721324]",bumper to bumper
528829fbc9155f01180000bb,95th Street,41.721409,-87.647429,"[-87.647429, 41.721409]",straight on no stopping
528829fbc9155f01180000bc,95th Street,41.721622,-87.631298,"[-87.631298, 41.721622]",straight on no stopping
528829fbc9155f01180000bd,95th Street,41.721659,-87.628777,"[-87.628777, 41.721659]",bumper to bumper
528829fbc9155f01180000be,95th Street,41.721813,-87.618662,"[-87.618662, 41.721813]",straight on no stopping
528829fbc9155f01180000bf,95th Street,41.722153,-87.597339,"[-87.597339, 41.722153]",straight on no stopping
528829fbc9155f01180000c0,95th Street,41.722499,-87.572943,"[-87.572943, 41.722499]",bumper to bumper
528829fbc9155f01180000c1,95th Street,41.722916,-87.538794,"[-87.538794, 41.722916]",bumper to bumper
528829fbc9155f01180000c2,103rd Street,41.706991,-87.63698,"[-87.63698, 41.706991]",straight on no stopping
528829fbc9155f01180000c3,103rd Street,41.707125,-87.626548,"[-87.626548, 41.707125]",bumper to bumper
528829fbc9155f01180000c4,103rd St,41.70726,-87.617296,"[-87.617296, 41.70726]",straight on no stopping
528829fbc9155f01180000c5,103rd St,41.707533,-87.600985,"[-87.600985, 41.707533]",go slow
528829fbc9155f01180000c6,Chicago Ave,41.764998,-87.60436,"[-87.60436, 41.764998]",bumper to bumper
528829fbc9155f01180000c7,Garfield Blvd,41.793839,-87.681286,"[-87.681286, 41.793839]",go slow
528829fbc9155f01180000c8,Garfield Blvd,41.793942,-87.671875,"[-87.671875, 41.793942]",bumper to bumper
528829fbc9155f01180000c9,Garfield Blvd,41.794746,-87.619558,"[-87.619558, 41.794746]",straight on no stopping
528829fbc9155f01180000ca,Garfield Blvd,41.794582,-87.629567,"[-87.629567, 41.794582]",straight on no stopping
528829fbc9155f01180000cb,Loomis St,41.863965,-87.661484,"[-87.661484, 41.863965]",go slow
528829fbc9155f01180000cc,Loomis St,41.855898,-87.661264,"[-87.661264, 41.855898]",straight on no stopping
528829fbc9155f01180000cd,Loomis St,41.80202,-87.659934,"[-87.659934, 41.80202]",bumper to bumper
528829fbc9155f01180000ce,Loomis St,41.790122,-87.65963,"[-87.65963, 41.790122]",straight on no stopping
528829fbc9155f01180000cf,Loomis St,41.773201,-87.659191,"[-87.659191, 41.773201]",straight on no stopping
528829fbc9155f01180000d0,Loomis St,41.77126,-87.659138,"[-87.659138, 41.77126]",go slow
528829fbc9155f01180000d1,Loomis St,41.752036,-87.658628,"[-87.658628, 41.752036]",bumper to bumper
528829fbc9155f01180000d2,Loomis St,41.744631,-87.658435,"[-87.658435, 41.744631]",bumper to bumper
528829fbc9155f01180000d3,Racine Ave,41.86852,-87.656729,"[-87.656729, 41.86852]",go slow
528829fbc9155f01180000d4,Racine Ave,41.864029,-87.656597,"[-87.656597, 41.864029]",bumper to bumper
528829fbc9155f01180000d5,Racine Ave,41.829325,-87.655686,"[-87.655686, 41.829325]",go slow
528829fbc9155f01180000d6,Racine Ave,41.813903,-87.655287,"[-87.655287, 41.813903]",straight on no stopping
528829fbc9155f01180000d7,Racine Ave,41.798563,-87.654979,"[-87.654979, 41.798563]",go slow
528829fbc9155f01180000d8,Racine Ave,41.780185,-87.654517,"[-87.654517, 41.780185]",bumper to bumper
528829fbc9155f01180000d9,Racine Ave,41.772,-87.654299,"[-87.654299, 41.772]",bumper to bumper
528829fbc9155f01180000da,Racine Ave,41.76448,-87.6541,"[-87.6541, 41.76448]",straight on no stopping
528829fbc9155f01180000db,Racine Ave,41.753377,-87.653813,"[-87.653813, 41.753377]",straight on no stopping
528829fbc9155f01180000dc,Racine Ave,41.744158,-87.653566,"[-87.653566, 41.744158]",straight on no stopping
528829fbc9155f01180000dd,18th Street,41.857573,-87.683337,"[-87.683337, 41.857573]",go slow
528829fbc9155f01180000de,18th Street,41.85774,-87.632821,"[-87.632821, 41.85774]",straight on no stopping
528829fbc9155f01180000df,18th St,41.857869,-87.624476,"[-87.624476, 41.857869]",bumper to bumper
528829fbc9155f01180000e0,18th St,41.85789,-87.622993,"[-87.622993, 41.85789]",bumper to bumper
528829fbc9155f01180000e1,31st St,41.837991,-87.650405,"[-87.650405, 41.837991]",straight on no stopping
528829fbc9155f01180000e2,31st St,41.837927,-87.655,"[-87.655, 41.837927]",bumper to bumper
528829fbc9155f01180000e3,31st St,41.838196,-87.634756,"[-87.634756, 41.838196]",bumper to bumper
528829fbc9155f01180000e4,31st St,41.838289,-87.627562,"[-87.627562, 41.838289]",bumper to bumper
528829fbc9155f01180000e5,31st St,41.838373,-87.621143,"[-87.621143, 41.838373]",bumper to bumper
528829fbc9155f01180000e6,35th St,41.830303,-87.682868,"[-87.682868, 41.830303]",straight on no stopping
528829fbc9155f01180000e7,35th St,41.830382,-87.67602,"[-87.67602, 41.830382]",go slow
528829fbc9155f01180000e8,35th St,41.830598,-87.657426,"[-87.657426, 41.830598]",go slow
528829fbc9155f01180000e9,35th St,41.830843,-87.639107,"[-87.639107, 41.830843]",straight on no stopping
528829fbc9155f01180000ea,35th St,41.831081,-87.619334,"[-87.619334, 41.831081]",straight on no stopping
528829fbc9155f01180000eb,35th St,41.831199,-87.613631,"[-87.613631, 41.831199]",straight on no stopping
528829fbc9155f01180000ec,43rd St,41.815858,-87.666235,"[-87.666235, 41.815858]",straight on no stopping
528829fbc9155f01180000ed,43rd St,41.815847,-87.661488,"[-87.661488, 41.815847]",straight on no stopping
528829fbc9155f01180000ee,43rd St,41.816301,-87.638721,"[-87.638721, 41.816301]",go slow
528829fbc9155f01180000ef,43rd St,41.816676,-87.614468,"[-87.614468, 41.816676]",bumper to bumper
528829fbc9155f01180000f0,47th St,41.808578,-87.667723,"[-87.667723, 41.808578]",bumper to bumper
528829fbc9155f01180000f1,47th St,41.808649,-87.661622,"[-87.661622, 41.808649]",go slow
528829fbc9155f01180000f2,47th St,41.809221,-87.626946,"[-87.626946, 41.809221]",go slow
528829fbc9155f01180000f3,47th St,41.809396,-87.615874,"[-87.615874, 41.809396]",straight on no stopping
528829fbc9155f01180000f4,47th St,41.809607,-87.599776,"[-87.599776, 41.809607]",straight on no stopping
528829fbc9155f01180000f5,51st Street,41.801293,-87.667538,"[-87.667538, 41.801293]",straight on no stopping
528829fbc9155f01180000f6,51st Street,41.801533,-87.648948,"[-87.648948, 41.801533]",go slow
528829fbc9155f01180000f7,51st St,41.801616,-87.6436,"[-87.6436, 41.801616]",straight on no stopping
528829fbc9155f01180000f8,51st St,41.801921,-87.62744,"[-87.62744, 41.801921]",bumper to bumper
528829fbc9155f01180000f9,51st St,41.802072,-87.618178,"[-87.618178, 41.802072]",go slow
528829fbc9155f01180000fa,51st St,41.80222,-87.608065,"[-87.608065, 41.80222]",bumper to bumper
528829fbc9155f01180000fb,55th Street,41.794244,-87.648908,"[-87.648908, 41.794244]",straight on no stopping
528829fbc9155f01180000fc,55th St,41.794804,-87.61571,"[-87.61571, 41.794804]",go slow
528829fbc9155f01180000fd,55th St,41.795109,-87.59326,"[-87.59326, 41.795109]",bumper to bumper
528829fbc9155f01180000fe,59th Street,41.786465,-87.690066,"[-87.690066, 41.786465]",bumper to bumper
528829fbc9155f01180000ff,59th Street,41.78671,-87.66752,"[-87.66752, 41.78671]",go slow
528829fbc9155f0118000100,59th St,41.78691,-87.652961,"[-87.652961, 41.78691]",bumper to bumper
528829fbc9155f0118000101,59th St,41.787062,-87.640752,"[-87.640752, 41.787062]",go slow
528829fbc9155f0118000102,59th Street,41.787305,-87.628708,"[-87.628708, 41.787305]",bumper to bumper
528829fbc9155f0118000103,59th St,41.78747,-87.619044,"[-87.619044, 41.78747]",bumper to bumper
528829fbc9155f0118000104,Blue Island Ave,41.846463,-87.681163,"[-87.681163, 41.846463]",bumper to bumper
528829fbc9155f0118000105,Blue Island Ave,41.849394,-87.673525,"[-87.673525, 41.849394]",go slow
528829fbc9155f0118000106,Blue Island Ave,41.859146,-87.660062,"[-87.660062, 41.859146]",straight on no stopping
528829fbc9155f0118000107,Cermak Rd,41.852078,-87.682174,"[-87.682174, 41.852078]",go slow
528829fbc9155f0118000108,Cermak Rd,41.852265,-87.669817,"[-87.669817, 41.852265]",straight on no stopping
528829fbc9155f0118000109,Cermak Rd,41.852464,-87.658227,"[-87.658227, 41.852464]",straight on no stopping
528829fbc9155f011800010a,Cermak Rd,41.852859,-87.633451,"[-87.633451, 41.852859]",bumper to bumper
528829fbc9155f011800010b,Cermak Rd,41.852812,-87.637573,"[-87.637573, 41.852812]",straight on no stopping
528829fbc9155f011800010c,Cermak Rd,41.852874,-87.627827,"[-87.627827, 41.852874]",bumper to bumper
528829fbc9155f011800010d,Cermak Rd,41.852861,-87.624414,"[-87.624414, 41.852861]",bumper to bumper
528829fbc9155f011800010e,Cermak Rd,41.852881,-87.622835,"[-87.622835, 41.852881]",bumper to bumper
528829fbc9155f011800010f,Hyde Park Blvd,41.802322,-87.600681,"[-87.600681, 41.802322]",bumper to bumper
528829fbc9155f0118000110,Hyde Park Blvd,41.797123,-87.583995,"[-87.583995, 41.797123]",straight on no stopping
528829fbc9155f0118000111,Marquette Rd,41.771932,-87.686307,"[-87.686307, 41.771932]",go slow
528829fbc9155f0118000112,Marquette Rd,41.772008,-87.679253,"[-87.679253, 41.772008]",go slow
528829fbc9155f0118000113,Marquette Rd,41.772514,-87.641987,"[-87.641987, 41.772514]",bumper to bumper
528829fbc9155f0118000114,Marquette Rd,41.772885,-87.620079,"[-87.620079, 41.772885]",bumper to bumper
528829fbc9155f0118000115,Marquette Rd,41.774978,-87.6042,"[-87.6042, 41.774978]",bumper to bumper
528829fbc9155f0118000116,Morgan St,41.828474,-87.65091,"[-87.65091, 41.828474]",go slow
528829fbc9155f0118000117,Morgan St,41.769644,-87.649382,"[-87.649382, 41.769644]",go slow
528829fbc9155f0118000118,Morgan St,41.762368,-87.649192,"[-87.649192, 41.762368]",bumper to bumper
528829fbc9155f0118000119,Pershing Rd,41.823191,-87.662035,"[-87.662035, 41.823191]",go slow
528829fbc9155f011800011a,Pershing Rd,41.823602,-87.634859,"[-87.634859, 41.823602]",straight on no stopping
528829fbc9155f011800011b,Pershing Rd,41.823805,-87.619176,"[-87.619176, 41.823805]",go slow
528829fbc9155f011800011c,Pershing Rd,41.823948,-87.607812,"[-87.607812, 41.823948]",go slow
528829fbc9155f011800011d,Roosevelt Rd,41.86686,-87.668106,"[-87.668106, 41.86686]",go slow
528829fbc9155f011800011e,Roosevelt Rd,41.867145,-87.647525,"[-87.647525, 41.867145]",straight on no stopping
528829fbc9155f011800011f,Roosevelt Rd,41.867266,-87.638052,"[-87.638052, 41.867266]",go slow
528829fbc9155f0118000120,Roosevelt RD,41.867439,-87.625406,"[-87.625406, 41.867439]",straight on no stopping
528829fbc9155f0118000121,24th St,41.849302,-87.622658,"[-87.622658, 41.849302]",bumper to bumper
528829fbc9155f0118000122,26TH  ST,41.845391,-87.641581,"[-87.641581, 41.845391]",go slow
528829fbc9155f0118000123,26th St,41.84566,-87.622137,"[-87.622137, 41.84566]",go slow
528829fbc9155f0118000124,56th St,41.793359,-87.587904,"[-87.587904, 41.793359]",bumper to bumper
528829fbc9155f0118000125,57th St,41.791544,-87.586175,"[-87.586175, 41.791544]",bumper to bumper
528829fbc9155f0118000126,60th St,41.785874,-87.606038,"[-87.606038, 41.785874]",bumper to bumper
528829fbc9155f0118000127,74th St,41.759597,-87.653971,"[-87.653971, 41.759597]",straight on no stopping
528829fbc9155f0118000128,83rd Pl,41.743472,-87.550548,"[-87.550548, 41.743472]",bumper to bumper
528829fbc9155f0118000129,85th St,41.741127,-87.545616,"[-87.545616, 41.741127]",go slow
528829fbc9155f011800012a,Balbo Ave,41.873149,-87.624836,"[-87.624836, 41.873149]",straight on no stopping
528829fbc9155f011800012b,Balbo Dr,41.873213,-87.620591,"[-87.620591, 41.873213]",go slow
528829fbc9155f011800012c,Best Dr,41.786586,-87.611974,"[-87.611974, 41.786586]",go slow
528829fbc9155f011800012d,Columbus Dr,41.869368,-87.620509,"[-87.620509, 41.869368]",straight on no stopping
528829fbc9155f011800012e,Drexel Blvd,41.802286,-87.603784,"[-87.603784, 41.802286]",bumper to bumper
528829fbc9155f011800012f,Midway Plaisance,41.786166,-87.584966,"[-87.584966, 41.786166]",bumper to bumper
528829fbc9155f0118000130,Morgan Dr,41.793546,-87.612405,"[-87.612405, 41.793546]",go slow
528829fbc9155f0118000131,Rainey Dr,41.793645,-87.609034,"[-87.609034, 41.793645]",go slow
528829fbc9155f0118000132,Harrison St,41.873649,-87.709133,"[-87.709133, 41.873649]",go slow
528829fbc9155f0118000133,Harrison St,41.87389,-87.686234,"[-87.686234, 41.87389]",bumper to bumper
528829fbc9155f0118000134,Harrison St,41.874043,-87.676455,"[-87.676455, 41.874043]",go slow
528829fbc9155f0118000135,Harrison St,41.874122,-87.670619,"[-87.670619, 41.874122]",bumper to bumper
528829fbc9155f0118000136,Harrison St,41.874199,-87.665037,"[-87.665037, 41.874199]",straight on no stopping
528829fbc9155f0118000137,Harrison St,41.87436,-87.652225,"[-87.652225, 41.87436]",straight on no stopping
528829fbc9155f0118000138,Harrison ST,41.87438,-87.627297,"[-87.627297, 41.87438]",bumper to bumper
528829fbc9155f0118000139,Harrison St,41.874327,-87.646119,"[-87.646119, 41.874327]",go slow
528829fbc9155f011800013a,Jefferson St,41.866652,-87.64217,"[-87.64217, 41.866652]",bumper to bumper
528829fbc9155f011800013b,Jefferson St,41.873569,-87.642397,"[-87.642397, 41.873569]",straight on no stopping
528829fbc9155f011800013c,Midway Plaisance,41.787229,-87.594821,"[-87.594821, 41.787229]",bumper to bumper
528829fbc9155f011800013d,Oakwood Blvd,41.823134,-87.605367,"[-87.605367, 41.823134]",straight on no stopping
528829fbc9155f011800013e,Polk St,41.872155,-87.633321,"[-87.633321, 41.872155]",go slow
528829fbc9155f011800013f,Beverly Ave,41.712817,-87.659031,"[-87.659031, 41.712817]",go slow
528829fbc9155f0118000140,Bond Ave,41.743319,-87.547879,"[-87.547879, 41.743319]",straight on no stopping
528829fbc9155f0118000141,Burley Ave,41.74028,-87.54538,"[-87.54538, 41.74028]",bumper to bumper
528829fbc9155f0118000142,Calumet Ave,41.855226,-87.619095,"[-87.619095, 41.855226]",go slow
528829fbc9155f0118000143,Canal St,41.875514,-87.639626,"[-87.639626, 41.875514]",straight on no stopping
528829fbc9155f0118000144,Clinton St,41.874389,-87.640956,"[-87.640956, 41.874389]",go slow
528829fbc9155f0118000145,Colfax Ave,41.720957,-87.560671,"[-87.560671, 41.720957]",bumper to bumper
528829fbc9155f0118000146,Columbus Dr,41.867512,-87.620401,"[-87.620401, 41.867512]",bumper to bumper
528829fbc9155f0118000147,Cornell Dr,41.782388,-87.584573,"[-87.584573, 41.782388]",straight on no stopping
528829fbc9155f0118000148,Dearborn St,41.873925,-87.62919,"[-87.62919, 41.873925]",go slow
528829fbc9155f0118000149,Des Plaines St,41.873531,-87.643862,"[-87.643862, 41.873531]",go slow
528829fbc9155f011800014a,Longwood Dr,41.693059,-87.671533,"[-87.671533, 41.693059]",straight on no stopping
528829fbc9155f011800014b,Parnell Ave,41.759562,-87.638479,"[-87.638479, 41.759562]",bumper to bumper
528829fbc9155f011800014c,Payne Dr,41.794542,-87.607689,"[-87.607689, 41.794542]",bumper to bumper
528829fbc9155f011800014d,Pitney Ct,41.838528,-87.662425,"[-87.662425, 41.838528]",straight on no stopping
528829fbc9155f011800014e,Richards Dr,41.778678,-87.579568,"[-87.579568, 41.778678]",bumper to bumper
528829fbc9155f011800014f,St Lawrence Ave,41.766933,-87.610456,"[-87.610456, 41.766933]",straight on no stopping
528829fbc9155f0118000150,Summit Ave,41.737236,-87.644725,"[-87.644725, 41.737236]",straight on no stopping
528829fbc9155f0118000151,Van Vlissingen Rd,41.714883,-87.573706,"[-87.573706, 41.714883]",straight on no stopping
528829fbc9155f0118000152,Wabash Ave,41.873661,-87.62598,"[-87.62598, 41.873661]",bumper to bumper
528829fbc9155f0118000153,Wabash Ave,41.86832,-87.625851,"[-87.625851, 41.86832]",bumper to bumper
528829fbc9155f0118000154,Wells St,41.869272,-87.633488,"[-87.633488, 41.869272]",bumper to bumper
528829fbc9155f0118000155,Woodlawn Ave,41.801676,-87.59669,"[-87.59669, 41.801676]",bumper to bumper
528829fbc9155f0118000156,Ogden Ave,41.876773,-87.671635,"[-87.671635, 41.876773]",go slow
528829fbc9155f0118000157,Ogden Ave,41.869995,-87.679727,"[-87.679727, 41.869995]",bumper to bumper
528829fbc9155f0118000158,Ogden Ave,41.862371,-87.692771,"[-87.692771, 41.862371]",go slow
528829fbc9155f0118000159,Pope John Paul II,41.815579,-87.692019,"[-87.692019, 41.815579]",straight on no stopping
528829fbc9155f011800015a,Root St,41.818962,-87.645802,"[-87.645802, 41.818962]",bumper to bumper
528829fbc9155f011800015b,Woodlawn Ave,41.800125,-87.596657,"[-87.596657, 41.800125]",straight on no stopping
528829fbc9155f011800015c,Woodlawn Ave,41.805123,-87.596753,"[-87.596753, 41.805123]",bumper to bumper
528829fbc9155f011800015d,Woodlawn Ave,41.810689,-87.596855,"[-87.596855, 41.810689]",go slow
528829fbc9155f011800015e,Lake Shore Dr,41.860562,-87.617934,"[-87.617934, 41.860562]",bumper to bumper
528829fbc9155f011800015f,Lake Shore Dr,41.799972,-87.581471,"[-87.581471, 41.799972]",bumper to bumper
528829fbc9155f0118000160,Torrence Ave,41.706839,-87.55965,"[-87.55965, 41.706839]",bumper to bumper
528829fbc9155f0118000161,Ewing Ave,41.708489,-87.535287,"[-87.535287, 41.708489]",bumper to bumper
528829fbc9155f0118000162,Wentworth Ave,41.70242,-87.628153,"[-87.628153, 41.70242]",straight on no stopping
528829fbc9155f0118000163,Kedzie Ave,41.702738,-87.701224,"[-87.701224, 41.702738]",go slow
528829fbc9155f0118000164,Michigan Ave,41.687943,-87.620988,"[-87.620988, 41.687943]",bumper to bumper
528829fbc9155f0118000165,Cottage Grove Ave,41.690928,-87.610268,"[-87.610268, 41.690928]",bumper to bumper
528829fbc9155f0118000166,State St,41.680056,-87.622723,"[-87.622723, 41.680056]",straight on no stopping
528829fbc9155f0118000167,Halsted St,41.682968,-87.642082,"[-87.642082, 41.682968]",go slow
528829fbc9155f0118000168,Vincennes Ave,41.677875,-87.671582,"[-87.671582, 41.677875]",go slow
528829fbc9155f0118000169,Michigan Ave,41.66836,-87.620176,"[-87.620176, 41.66836]",straight on no stopping
528829fbc9155f011800016a,State St,41.675955,-87.622596,"[-87.622596, 41.675955]",bumper to bumper
528829fbc9155f011800016b,Wentworth Ave,41.674552,-87.627366,"[-87.627366, 41.674552]",go slow
528829fbc9155f011800016c,Baltimore Ave,41.658336,-87.547134,"[-87.547134, 41.658336]",straight on no stopping
528829fbc9155f011800016d,Torrence Ave,41.659854,-87.55928,"[-87.55928, 41.659854]",go slow
528829fbc9155f011800016e,Torrence Ave,41.655545,-87.559298,"[-87.559298, 41.655545]",straight on no stopping
528829fbc9155f011800016f,Damen Ave,41.773922,-87.673756,"[-87.673756, 41.773922]",bumper to bumper
528829fbc9155f0118000170,Ogden Ave,41.880815,-87.666819,"[-87.666819, 41.880815]",go slow
528829fbc9155f0118000171,Ashland Ave,41.879119,-87.666752,"[-87.666752, 41.879119]",go slow
528829fbc9155f0118000172,Des Plaines St,41.879863,-87.644062,"[-87.644062, 41.879863]",straight on no stopping
528829fbc9155f0118000173,Ashland Ave,41.897607,-87.667335,"[-87.667335, 41.897607]",go slow
528829fbc9155f0118000174,Pershing Rd,41.822902,-87.688714,"[-87.688714, 41.822902]",go slow
528829fbc9155f0118000175,Grand Ave,41.915566,-87.750173,"[-87.750173, 41.915566]",go slow
528829fbc9155f0118000176,Cicero Ave,41.919517,-87.746187,"[-87.746187, 41.919517]",bumper to bumper
528829fbc9155f0118000177,Montrose Ave,41.961614,-87.667445,"[-87.667445, 41.961614]",bumper to bumper
528829fbc9155f0118000178,55th St,41.794069,-87.662159,"[-87.662159, 41.794069]",straight on no stopping
528829fbc9155f0118000179,Lake St,41.885403,-87.663033,"[-87.663033, 41.885403]",straight on no stopping
528829fbc9155f011800017a,Diversey Ave,41.932463,-87.664643,"[-87.664643, 41.932463]",go slow
528829fbc9155f011800017b,Cicero Ave,41.90128,-87.745946,"[-87.745946, 41.90128]",go slow
528829fbc9155f011800017c,Laramie Ave,41.900935,-87.755742,"[-87.755742, 41.900935]",bumper to bumper
528829fbc9155f011800017d,Central Ave,41.900144,-87.765583,"[-87.765583, 41.900144]",straight on no stopping
528829fbc9155f011800017e,Jackson Blvd,41.877113,-87.77081,"[-87.77081, 41.877113]",straight on no stopping
528829fbc9155f011800017f,Washington St,41.882191,-87.768235,"[-87.768235, 41.882191]",straight on no stopping
528829fbc9155f0118000180,Lake St,41.887904,-87.771064,"[-87.771064, 41.887904]",bumper to bumper
528829fbc9155f0118000181,Division St,41.902037,-87.772722,"[-87.772722, 41.902037]",straight on no stopping
528829fbc9155f0118000182,Grand Ave,41.919484,-87.769758,"[-87.769758, 41.919484]",straight on no stopping
528829fbc9155f0118000183,Diversey Ave,41.931174,-87.77358,"[-87.77358, 41.931174]",bumper to bumper
528829fbc9155f0118000184,Montrose Ave,41.960389,-87.774207,"[-87.774207, 41.960389]",go slow
528829fbc9155f0118000185,106th St,41.702743,-87.537314,"[-87.537314, 41.702743]",go slow
528829fbc9155f0118000186,Brainard Ave,41.65732,-87.557177,"[-87.557177, 41.65732]",go slow
528829fbc9155f0118000187,134th St,41.651861,-87.54501,"[-87.54501, 41.651861]",bumper to bumper
528829fbc9155f0118000188,Austin Ave,41.93269,-87.776018,"[-87.776018, 41.93269]",straight on no stopping
528829fbc9155f0118000189,Addison St,41.9477,-87.646232,"[-87.646232, 41.9477]",bumper to bumper
528829fbc9155f011800018a,Hollywood Ave,41.985494,-87.657453,"[-87.657453, 41.985494]",straight on no stopping
528829fbc9155f011800018b,Sheridan Ave,41.97914,-87.655026,"[-87.655026, 41.97914]",go slow
528829fbc9155f011800018c,26th St,41.844657,-87.697733,"[-87.697733, 41.844657]",bumper to bumper
528829fbc9155f011800018d,51st St,41.801077,-87.688258,"[-87.688258, 41.801077]",straight on no stopping
528829fbc9155f011800018e,47th St,41.808295,-87.693288,"[-87.693288, 41.808295]",go slow
528829fbc9155f011800018f,Cermak Rd,41.851933,-87.693114,"[-87.693114, 41.851933]",bumper to bumper
528829fbc9155f0118000190,Roosevelt Rd,41.866535,-87.693471,"[-87.693471, 41.866535]",go slow
528829fbc9155f0118000191,43rd St,41.81567,-87.686204,"[-87.686204, 41.81567]",straight on no stopping
528829fbc9155f0118000192,Talcott Ave,41.988619,-87.812789,"[-87.812789, 41.988619]",bumper to bumper
528829fbc9155f0118000193,16th St,41.858949,-87.717426,"[-87.717426, 41.858949]",straight on no stopping
528829fbc9155f0118000194,Irving Park Rd,41.95327,-87.759652,"[-87.759652, 41.95327]",go slow
528829fbc9155f0118000195,Fullerton Ave,41.924043,-87.761108,"[-87.761108, 41.924043]",go slow
528829fbc9155f0118000196,North Ave,41.910014,-87.713878,"[-87.713878, 41.910014]",bumper to bumper
528829fbc9155f0118000197,Washington St,41.881668,-87.718383,"[-87.718383, 41.881668]",go slow
528829fbc9155f0118000198,Madison St,41.880898,-87.712441,"[-87.712441, 41.880898]",straight on no stopping
528829fbc9155f0118000199,Wrightwood Ave,41.928267,-87.716068,"[-87.716068, 41.928267]",go slow
528829fbc9155f011800019a,Foster Ave,41.9753,-87.750239,"[-87.750239, 41.9753]",go slow
528829fbc9155f011800019b,Roosevelt Rd,41.865941,-87.741303,"[-87.741303, 41.865941]",bumper to bumper
528829fbc9155f011800019c,Chicago Ave,41.895151,-87.737793,"[-87.737793, 41.895151]",straight on no stopping
528829fbc9155f011800019d,North Ave,41.909705,-87.739646,"[-87.739646, 41.909705]",straight on no stopping
528829fbc9155f011800019e,Wilson Ave,41.965326,-87.662564,"[-87.662564, 41.965326]",straight on no stopping
528829fbc9155f011800019f,Foster Ave,41.976215,-87.666782,"[-87.666782, 41.976215]",bumper to bumper
528829fbc9155f01180001a0,Bryn Mawr Ave,41.983538,-87.665686,"[-87.665686, 41.983538]",bumper to bumper
528829fbc9155f01180001a1,Chicago Ave,41.896651,-87.630189,"[-87.630189, 41.896651]",straight on no stopping
528829fbc9155f01180001a2,Ontario St,41.893244,-87.630017,"[-87.630017, 41.893244]",straight on no stopping
528829fbc9155f01180001a3,Pratt Blvd,42.00544,-87.666635,"[-87.666635, 42.00544]",bumper to bumper
528829fbc9155f01180001a4,Congress Pkwy,41.875606,-87.630878,"[-87.630878, 41.875606]",straight on no stopping
528829fbc9155f01180001a5,111th St,41.692822,-87.605505,"[-87.605505, 41.692822]",straight on no stopping
528829fbc9155f01180001a6,North Ave,41.910585,-87.669739,"[-87.669739, 41.910585]",bumper to bumper
528829fbc9155f01180001a7,Foster Ave,41.976144,-87.671622,"[-87.671622, 41.976144]",go slow
528829fbc9155f01180001a8,Chicago Ave,41.895971,-87.67335,"[-87.67335, 41.895971]",bumper to bumper
528829fbc9155f01180001a9,Van Buren St,41.87691,-87.628624,"[-87.628624, 41.87691]",go slow
528829fbc9155f01180001aa,Jackson Blvd,41.878174,-87.628405,"[-87.628405, 41.878174]",go slow
528829fbc9155f01180001ab,Adams St,41.879452,-87.628325,"[-87.628325, 41.879452]",bumper to bumper
528829fbc9155f01180001ac,Monroe St,41.880775,-87.626654,"[-87.626654, 41.880775]",straight on no stopping
528829fbc9155f01180001ad,Madison St,41.882024,-87.628403,"[-87.628403, 41.882024]",go slow
528829fbc9155f01180001ae,Lake St,41.885747,-87.628288,"[-87.628288, 41.885747]",bumper to bumper
528829fbc9155f01180001af,Washington St,41.883215,-87.628926,"[-87.628926, 41.883215]",straight on no stopping
528829fbc9155f01180001b0,Randolph St,41.884485,-87.628798,"[-87.628798, 41.884485]",go slow
528829fbc9155f01180001b1,California Ave,42.000202,-87.699716,"[-87.699716, 42.000202]",go slow
528829fbc9155f01180001b2,112th St,41.691858,-87.539118,"[-87.539118, 41.691858]",straight on no stopping
528829fbc9155f01180001b3,111th St,41.691285,-87.720316,"[-87.720316, 41.691285]",bumper to bumper
528829fbc9155f01180001b4,107th St,41.699648,-87.641695,"[-87.641695, 41.699648]",straight on no stopping
528829fbc9155f01180001b5,79th St,41.749569,-87.721913,"[-87.721913, 41.749569]",bumper to bumper
528829fbc9155f01180001b6,Marquette St,41.771406,-87.720493,"[-87.720493, 41.771406]",straight on no stopping
528829fbc9155f01180001b7,63rd St,41.778674,-87.721655,"[-87.721655, 41.778674]",go slow
528829fbc9155f01180001b8,Archer Ave,41.795919,-87.761047,"[-87.761047, 41.795919]",bumper to bumper
528829fbc9155f01180001b9,55th St,41.793061,-87.739172,"[-87.739172, 41.793061]",straight on no stopping
528829fbc9155f01180001ba,47th St,41.808006,-87.712716,"[-87.712716, 41.808006]",go slow
528829fbc9155f01180001bb,47th St,41.807648,-87.741014,"[-87.741014, 41.807648]",straight on no stopping
528829fbc9155f01180001bc,35th St,41.830119,-87.693144,"[-87.693144, 41.830119]",go slow
528829fbc9155f01180001bd,16th St,41.859094,-87.704686,"[-87.704686, 41.859094]",straight on no stopping
528829fbc9155f01180001be,Lake St,41.886549,-87.744388,"[-87.744388, 41.886549]",go slow
528829fbc9155f01180001bf,Grand Ave,41.909224,-87.734147,"[-87.734147, 41.909224]",go slow
528829fbc9155f01180001c0,Fullerton Ave,41.925567,-87.641535,"[-87.641535, 41.925567]",straight on no stopping
528829fbc9155f01180001c1,Clybourn Ave,41.923528,-87.667066,"[-87.667066, 41.923528]",go slow
528829fbc9155f01180001c2,Addison St,41.944804,-87.834785,"[-87.834785, 41.944804]",bumper to bumper
528829fbc9155f01180001c3,Lawrence Ave,41.968273,-87.724989,"[-87.724989, 41.968273]",bumper to bumper
528829fbc9155f01180001c4,Lawrence Ave,41.966293,-87.850072,"[-87.850072, 41.966293]",straight on no stopping
528829fbc9155f01180001c5,Bryn Mawr Ave,41.982866,-87.724368,"[-87.724368, 41.982866]",bumper to bumper
528829fbc9155f01180001c6,Peterson Ave,41.990343,-87.71242,"[-87.71242, 41.990343]",bumper to bumper
528829fbc9155f01180001c7,Peterson Ave,41.990529,-87.687864,"[-87.687864, 41.990529]",straight on no stopping
528829fbc9155f01180001c8,Devon Ave,41.997767,-87.687751,"[-87.687751, 41.997767]",go slow
528829fbc9155f01180001c9,Devon Ave,41.997773,-87.805489,"[-87.805489, 41.997773]",bumper to bumper
528829fbc9155f01180001ca,Jackson Blvd,41.877093,-87.725018,"[-87.725018, 41.877093]",straight on no stopping
528829fbc9155f01180001cb,Jackson Blvd,41.877558,-87.685609,"[-87.685609, 41.877558]",go slow
528829fbc9155f01180001cc,Jackson Blvd,41.877595,-87.668568,"[-87.668568, 41.877595]",go slow
528829fbc9155f01180001cd,Jackson Blvd,41.877635,-87.665993,"[-87.665993, 41.877635]",straight on no stopping
528829fbc9155f01180001ce,Jackson Dr,41.878356,-87.618837,"[-87.618837, 41.878356]",bumper to bumper
528829fbc9155f01180001cf,Adams St,41.87878,-87.674129,"[-87.674129, 41.87878]",go slow
528829fbc9155f01180001d0,Adams St,41.878596,-87.685749,"[-87.685749, 41.878596]",bumper to bumper
528829fbc9155f01180001d1,Madison St,41.88074,-87.724539,"[-87.724539, 41.88074]",straight on no stopping
528829fbc9155f01180001d2,Lake St,41.884876,-87.715267,"[-87.715267, 41.884876]",straight on no stopping
528829fbc9155f01180001d3,Lake St,41.884246,-87.704407,"[-87.704407, 41.884246]",go slow
528829fbc9155f01180001d4,Washington St,41.883218,-87.627549,"[-87.627549, 41.883218]",bumper to bumper
528829fbc9155f01180001d5,Warren Blvd,41.882102,-87.685013,"[-87.685013, 41.882102]",straight on no stopping
528829fbc9155f01180001d6,Madison St,41.881177,-87.6854,"[-87.6854, 41.881177]",straight on no stopping
528829fbc9155f01180001d7,Lake St,41.885023,-87.675556,"[-87.675556, 41.885023]",straight on no stopping
528829fbc9155f01180001d8,Franklin Blvd,41.890069,-87.706392,"[-87.706392, 41.890069]",bumper to bumper
528829fbc9155f01180001d9,Grand Ave,41.890846,-87.675563,"[-87.675563, 41.890846]",straight on no stopping
528829fbc9155f01180001da,Chicago Ave,41.896397,-87.647745,"[-87.647745, 41.896397]",bumper to bumper
528829fbc9155f01180001db,Chicago Ave,41.896097,-87.665698,"[-87.665698, 41.896097]",straight on no stopping
528829fbc9155f01180001dc,Division St,41.902686,-87.724565,"[-87.724565, 41.902686]",go slow
528829fbc9155f01180001dd,Grand Ave,41.90103,-87.713491,"[-87.713491, 41.90103]",straight on no stopping
528829fbc9155f01180001de,Division St,41.902865,-87.703662,"[-87.703662, 41.902865]",straight on no stopping
528829fbc9155f01180001df,Division St,41.903211,-87.67591,"[-87.67591, 41.903211]",bumper to bumper
528829fbc9155f01180001e0,Augusta Blvd,41.899743,-87.66515,"[-87.66515, 41.899743]",bumper to bumper
528829fbc9155f01180001e1,Chicago Ave,41.89675,-87.623095,"[-87.623095, 41.89675]",go slow
528829fbc9155f01180001e2,Chicago Ave,41.896787,-87.620252,"[-87.620252, 41.896787]",go slow
528829fbc9155f01180001e3,Van Buren St,41.876846,-87.633902,"[-87.633902, 41.876846]",go slow
528829fbc9155f01180001e4,Pulaski Rd,41.924943,-87.726783,"[-87.726783, 41.924943]",go slow
528829fbc9155f01180001e5,Grand Ave,41.923102,-87.7871,"[-87.7871, 41.923102]",bumper to bumper
528829fbc9155f01180001e6,Armitage Ave,41.916857,-87.752046,"[-87.752046, 41.916857]",bumper to bumper
528829fbc9155f01180001e7,Central Ave,41.92398,-87.765989,"[-87.765989, 41.92398]",go slow
528829fbc9155f01180001e8,Addison St,41.947325,-87.648813,"[-87.648813, 41.947325]",go slow
528829fbc9155f01180001e9,Belmont Ave,41.940016,-87.646727,"[-87.646727, 41.940016]",bumper to bumper
528829fbc9155f01180001ea,Division St,41.903698,-87.644273,"[-87.644273, 41.903698]",straight on no stopping
528829fbc9155f01180001eb,127th St,41.663357,-87.628989,"[-87.628989, 41.663357]",straight on no stopping
528829fbc9155f01180001ec,119th St,41.6779,-87.63412,"[-87.63412, 41.6779]",bumper to bumper
528829fbc9155f01180001ed,31st St,41.836923,-87.721956,"[-87.721956, 41.836923]",straight on no stopping
528829fbc9155f01180001ee,Higgins Ave,41.979107,-87.797633,"[-87.797633, 41.979107]",go slow
528829fbc9155f01180001ef,Dearborn St,41.874957,-87.629219,"[-87.629219, 41.874957]",bumper to bumper
528829fbc9155f01180001f0,Damen Ave,41.874597,-87.676475,"[-87.676475, 41.874597]",go slow
528829fbc9155f01180001f1,Washington St,41.881363,-87.714203,"[-87.714203, 41.881363]",go slow
528829fbc9155f01180001f2,31st St,41.837188,-87.706989,"[-87.706989, 41.837188]",go slow
528829fbc9155f01180001f3,Western Ave,41.959095,-87.688615,"[-87.688615, 41.959095]",straight on no stopping
528829fbc9155f01180001f4,La Salle St,41.878543,-87.632267,"[-87.632267, 41.878543]",bumper to bumper
528829fbc9155f01180001f5,Des Plaines St,41.878908,-87.644032,"[-87.644032, 41.878908]",go slow
528829fbc9155f01180001f6,Clinton St,41.878904,-87.641098,"[-87.641098, 41.878904]",go slow
528829fbc9155f01180001f7,Canal St,41.878519,-87.639575,"[-87.639575, 41.878519]",go slow
528829fbc9155f01180001f8,Wells St,41.87909,-87.633752,"[-87.633752, 41.87909]",straight on no stopping
528829fbc9155f01180001f9,Clark St,41.879069,-87.630811,"[-87.630811, 41.879069]",bumper to bumper
528829fbc9155f01180001fa,Dearborn St,41.878484,-87.629312,"[-87.629312, 41.878484]",bumper to bumper
528829fbc9155f01180001fb,Kostner Ave,41.875108,-87.735281,"[-87.735281, 41.875108]",bumper to bumper
528829fbc9155f01180001fc,Kedzie Ave,41.878056,-87.706035,"[-87.706035, 41.878056]",go slow
528829fbc9155f01180001fd,Monroe St,41.880547,-87.642755,"[-87.642755, 41.880547]",bumper to bumper
528829fbc9155f01180001fe,63rd St,41.779058,-87.697351,"[-87.697351, 41.779058]",bumper to bumper
528829fbc9155f01180001ff,59th St,41.786284,-87.700958,"[-87.700958, 41.786284]",go slow
528829fbc9155f0118000200,Garfield Blvd,41.793556,-87.701352,"[-87.701352, 41.793556]",go slow
528829fbc9155f0118000201,Pershing Rd,41.822739,-87.696963,"[-87.696963, 41.822739]",bumper to bumper
528829fbc9155f0118000202,31st St,41.837394,-87.696,"[-87.696, 41.837394]",bumper to bumper
528829fbc9155f0118000203,Warren Blvd,41.881848,-87.708484,"[-87.708484, 41.881848]",straight on no stopping
528829fbc9155f0118000204,Washington St,41.882781,-87.707473,"[-87.707473, 41.882781]",straight on no stopping
528829fbc9155f0118000205,Wrightwood Ave,41.928333,-87.710574,"[-87.710574, 41.928333]",go slow
528829fbc9155f0118000206,Fullerton Ave,41.924697,-87.709117,"[-87.709117, 41.924697]",bumper to bumper
528829fbc9155f0118000207,103rd St,41.706389,-87.684155,"[-87.684155, 41.706389]",bumper to bumper
528829fbc9155f0118000208,Washington St,41.883162,-87.644644,"[-87.644644, 41.883162]",go slow
528829fbc9155f0118000209,Lawrence Ave,41.968422,-87.711419,"[-87.711419, 41.968422]",go slow
528829fbc9155f011800020a,Harrison St,41.873224,-87.741379,"[-87.741379, 41.873224]",go slow
528829fbc9155f011800020b,31st St,41.836814,-87.730379,"[-87.730379, 41.836814]",straight on no stopping
528829fbc9155f011800020c,Ogden St,41.850584,-87.726087,"[-87.726087, 41.850584]",straight on no stopping
528829fbc9155f011800020d,Fullerton Ave,41.924462,-87.728691,"[-87.728691, 41.924462]",straight on no stopping
528829fbc9155f011800020e,Diversey Ave,41.931692,-87.734385,"[-87.734385, 41.931692]",bumper to bumper
528829fbc9155f011800020f,Addison St,41.946012,-87.754759,"[-87.754759, 41.946012]",straight on no stopping
528829fbc9155f0118000210,North Ave,41.909527,-87.753622,"[-87.753622, 41.909527]",straight on no stopping
528829fbc9155f0118000211,Grand Ave,41.891595,-87.633278,"[-87.633278, 41.891595]",straight on no stopping
528829fbc9155f0118000212,Central Ave,41.962998,-87.767323,"[-87.767323, 41.962998]",go slow
528829fbc9155f0118000213,Western Ave,41.964867,-87.688793,"[-87.688793, 41.964867]",go slow
528829fbc9155f0118000214,Touhy Ave,42.011999,-87.785556,"[-87.785556, 42.011999]",straight on no stopping
528829fbc9155f0118000215,California Ave,41.987697,-87.699307,"[-87.699307, 41.987697]",straight on no stopping
528829fbc9155f0118000216,Devon Ave,41.997256,-87.724713,"[-87.724713, 41.997256]",straight on no stopping
528829fbc9155f0118000217,111th St,41.69184,-87.676796,"[-87.676796, 41.69184]",bumper to bumper
528829fbc9155f0118000218,Cicero Ave,41.878378,-87.745201,"[-87.745201, 41.878378]",bumper to bumper
528829fbc9155f0118000219,Pulaski Rd,41.878768,-87.725604,"[-87.725604, 41.878768]",go slow
528829fbc9155f011800021a,Jefferson St,41.880549,-87.642619,"[-87.642619, 41.880549]",straight on no stopping
528829fbc9155f011800021b,Foster Ave,41.976427,-87.652889,"[-87.652889, 41.976427]",go slow
528829fbc9155f011800021c,107th St,41.69994,-87.618575,"[-87.618575, 41.69994]",go slow
528829fbc9155f011800021d,111th St,41.692731,-87.613734,"[-87.613734, 41.692731]",bumper to bumper
528829fbc9155f011800021e,Belmont Ave,41.939165,-87.721399,"[-87.721399, 41.939165]",straight on no stopping
528829fbc9155f011800021f,Bryn Mawr Ave,41.98293,-87.77077,"[-87.77077, 41.98293]",go slow
528829fbc9155f0118000220,Western Ave,41.678624,-87.680741,"[-87.680741, 41.678624]",bumper to bumper
528829fbc9155f0118000221,Pulaski Rd,41.692257,-87.720366,"[-87.720366, 41.692257]",straight on no stopping
528829fbc9155f0118000222,Kedzie Ave,41.68508,-87.700584,"[-87.700584, 41.68508]",straight on no stopping
528829fbc9155f0118000223,Jeffery Ave,41.722735,-87.575361,"[-87.575361, 41.722735]",bumper to bumper
528829fbc9155f0118000224,Cottage Grove Ave,41.724079,-87.604556,"[-87.604556, 41.724079]",straight on no stopping
528829fbc9155f0118000225,Exchange Ave,41.746122,-87.552788,"[-87.552788, 41.746122]",go slow
528829fbc9155f0118000226,Kedzie Ave,41.743683,-87.702226,"[-87.702226, 41.743683]",straight on no stopping
528829fbc9155f0118000227,Pulaski Rd,41.750615,-87.721947,"[-87.721947, 41.750615]",straight on no stopping
528829fbc9155f0118000228,Cottage Grove Ave,41.75174,-87.605221,"[-87.605221, 41.75174]",straight on no stopping
528829fbc9155f0118000229,Damen Ave,41.751171,-87.673157,"[-87.673157, 41.751171]",bumper to bumper
528829fbc9155f011800022a,Kedzie Ave,41.770238,-87.702937,"[-87.702937, 41.770238]",go slow
528829fbc9155f011800022b,Cicero Ave,41.779921,-87.74234,"[-87.74234, 41.779921]",bumper to bumper
528829fbc9155f011800022c,Pulaski Rd,41.779583,-87.722787,"[-87.722787, 41.779583]",go slow
528829fbc9155f011800022d,Kedzie Ave,41.780314,-87.703172,"[-87.703172, 41.780314]",straight on no stopping
528829fbc9155f011800022e,Ashland Ave,41.780774,-87.664249,"[-87.664249, 41.780774]",bumper to bumper
528829fbc9155f011800022f,Central Ave,41.793546,-87.762329,"[-87.762329, 41.793546]",go slow
528829fbc9155f0118000230,Cicero Ave,41.794355,-87.742622,"[-87.742622, 41.794355]",bumper to bumper
528829fbc9155f0118000231,Kedzie Ave,41.794916,-87.703597,"[-87.703597, 41.794916]",go slow
528829fbc9155f0118000232,California Ave,41.794209,-87.693813,"[-87.693813, 41.794209]",go slow
528829fbc9155f0118000233,Damen Ave,41.795427,-87.674346,"[-87.674346, 41.795427]",go slow
528829fbc9155f0118000234,Archer Ave,41.809086,-87.712401,"[-87.712401, 41.809086]",straight on no stopping
528829fbc9155f0118000235,Kedzie Ave,41.809606,-87.704033,"[-87.704033, 41.809606]",straight on no stopping
528829fbc9155f0118000236,California Ave,41.80897,-87.694224,"[-87.694224, 41.80897]",straight on no stopping
528829fbc9155f0118000237,Damen Ave,41.82387,-87.675108,"[-87.675108, 41.82387]",bumper to bumper
528829fbc9155f0118000238,Kostner Ave,41.837654,-87.734096,"[-87.734096, 41.837654]",bumper to bumper
528829fbc9155f0118000239,Kedzie Ave,41.839026,-87.704872,"[-87.704872, 41.839026]",go slow
528829fbc9155f011800023a,California Ave,41.838385,-87.695058,"[-87.695058, 41.838385]",go slow
528829fbc9155f011800023b,Hamlin Ave,41.846135,-87.719725,"[-87.719725, 41.846135]",bumper to bumper
528829fbc9155f011800023c,Marshall Blvd,41.852795,-87.699117,"[-87.699117, 41.852795]",straight on no stopping
528829fbc9155f011800023d,California Ave,41.852259,-87.695456,"[-87.695456, 41.852259]",straight on no stopping
528829fbc9155f011800023e,Damen Ave,41.852275,-87.675844,"[-87.675844, 41.852275]",straight on no stopping
528829fbc9155f011800023f,Kostner Ave,41.859611,-87.734761,"[-87.734761, 41.859611]",go slow
528829fbc9155f0118000240,Pulaski Rd,41.859508,-87.724975,"[-87.724975, 41.859508]",straight on no stopping
528829fbc9155f0118000241,Sacramento Ave,41.866927,-87.700802,"[-87.700802, 41.866927]",go slow
528829fbc9155f0118000242,Kimball Ave,41.914325,-87.71182,"[-87.71182, 41.914325]",go slow
528829fbc9155f0118000243,Central Ave,41.877492,-87.764763,"[-87.764763, 41.877492]",bumper to bumper
528829fbc9155f0118000244,Laramie Ave,41.878472,-87.754997,"[-87.754997, 41.878472]",straight on no stopping
528829fbc9155f0118000245,Austin Ave,41.896495,-87.775191,"[-87.775191, 41.896495]",go slow
528829fbc9155f0118000246,Ashland Ave,41.911509,-87.667716,"[-87.667716, 41.911509]",bumper to bumper
528829fbc9155f0118000247,Damen Ave,41.920367,-87.677714,"[-87.677714, 41.920367]",straight on no stopping
528829fbc9155f0118000248,Milwaukee Ave,41.918295,-87.689798,"[-87.689798, 41.918295]",bumper to bumper
528829fbc9155f0118000249,Pulaski Rd,41.911129,-87.72637,"[-87.72637, 41.911129]",bumper to bumper
528829fbc9155f011800024a,Laramie Ave,41.91094,-87.755711,"[-87.755711, 41.91094]",bumper to bumper
528829fbc9155f011800024b,Narragansett Ave,41.910958,-87.785061,"[-87.785061, 41.910958]",bumper to bumper
528829fbc9155f011800024c,Harlem Ave,41.923557,-87.80624,"[-87.80624, 41.923557]",bumper to bumper
528829fbc9155f011800024d,Kedzie Ave,41.92573,-87.707248,"[-87.707248, 41.92573]",straight on no stopping
528829fbc9155f011800024e,Sacramento Ave,41.925478,-87.702337,"[-87.702337, 41.925478]",go slow
528829fbc9155f011800024f,Ashland Ave,41.926152,-87.668181,"[-87.668181, 41.926152]",bumper to bumper
528829fbc9155f0118000250,Lake Shore Inner Dr,41.934544,-87.636704,"[-87.636704, 41.934544]",straight on no stopping
528829fbc9155f0118000251,Halsted St,41.933425,-87.649035,"[-87.649035, 41.933425]",bumper to bumper
528829fbc9155f0118000252,Sheffield Ave,41.933448,-87.653886,"[-87.653886, 41.933448]",bumper to bumper
528829fbc9155f0118000253,Southport Ave,41.934004,-87.663612,"[-87.663612, 41.934004]",straight on no stopping
528829fbc9155f0118000254,Ashland Ave,41.934063,-87.668456,"[-87.668456, 41.934063]",go slow
528829fbc9155f0118000255,Kimball Ave,41.93822,-87.712455,"[-87.712455, 41.93822]",bumper to bumper
528829fbc9155f0118000256,Kimball Ave,41.928608,-87.712206,"[-87.712206, 41.928608]",go slow
528829fbc9155f0118000257,Central Park Ave,41.933649,-87.717233,"[-87.717233, 41.933649]",straight on no stopping
528829fbc9155f0118000258,Pulaski Rd,41.932562,-87.727001,"[-87.727001, 41.932562]",bumper to bumper
528829fbc9155f0118000259,Kostner Ave,41.932608,-87.736835,"[-87.736835, 41.932608]",go slow
528829fbc9155f011800025a,Cicero Ave,41.9329,-87.746649,"[-87.746649, 41.9329]",bumper to bumper
528829fbc9155f011800025b,Laramie Ave,41.932527,-87.756461,"[-87.756461, 41.932527]",straight on no stopping
528829fbc9155f011800025c,Cumberland Ave,41.939209,-87.836148,"[-87.836148, 41.939209]",go slow
528829fbc9155f011800025d,Cumberland Ave,41.946244,-87.836483,"[-87.836483, 41.946244]",straight on no stopping
528829fbc9155f011800025e,Harlem Ave,41.939539,-87.8068,"[-87.8068, 41.939539]",go slow
528829fbc9155f011800025f,Forest Preserve Ave,41.94619,-87.822945,"[-87.822945, 41.94619]",bumper to bumper
528829fbc9155f0118000260,Oak Park Ave,41.946811,-87.796043,"[-87.796043, 41.946811]",bumper to bumper
528829fbc9155f0118000261,Central Ave,41.947672,-87.766819,"[-87.766819, 41.947672]",bumper to bumper
528829fbc9155f0118000262,Laramie Ave,41.946687,-87.75694,"[-87.75694, 41.946687]",bumper to bumper
528829fbc9155f0118000263,Cicero Ave,41.940497,-87.746913,"[-87.746913, 41.940497]",straight on no stopping
528829fbc9155f0118000264,Cicero Ave,41.947548,-87.747128,"[-87.747128, 41.947548]",bumper to bumper
528829fbc9155f0118000265,Milwaukee Ave,41.946769,-87.736449,"[-87.736449, 41.946769]",go slow
528829fbc9155f0118000266,Kedzie Ave,41.940356,-87.707649,"[-87.707649, 41.940356]",straight on no stopping
528829fbc9155f0118000267,Elston Ave,41.940326,-87.69968,"[-87.69968, 41.940326]",straight on no stopping
528829fbc9155f0118000268,California Ave,41.940634,-87.697862,"[-87.697862, 41.940634]",go slow
528829fbc9155f0118000269,Western Ave (over pass),41.940366,-87.688076,"[-87.688076, 41.940366]",straight on no stopping
528829fbc9155f011800026a,Damen Ave,41.940256,-87.678374,"[-87.678374, 41.940256]",straight on no stopping
528829fbc9155f011800026b,Sheffield Ave,41.940796,-87.654132,"[-87.654132, 41.940796]",straight on no stopping
528829fbc9155f011800026c,Halsted St,41.940877,-87.649294,"[-87.649294, 41.940877]",bumper to bumper
528829fbc9155f011800026d,Lake Shore Inner Dr,41.949054,-87.643703,"[-87.643703, 41.949054]",go slow
528829fbc9155f011800026e,Broadway,41.948385,-87.647898,"[-87.647898, 41.948385]",bumper to bumper
528829fbc9155f011800026f,Halsted St,41.948965,-87.649538,"[-87.649538, 41.948965]",bumper to bumper
528829fbc9155f0118000270,Clark St,41.94979,-87.658602,"[-87.658602, 41.94979]",go slow
528829fbc9155f0118000271,Ashland Ave,41.947751,-87.668879,"[-87.668879, 41.947751]",straight on no stopping
528829fbc9155f0118000272,Narragansett Ave,41.954774,-87.78662,"[-87.78662, 41.954774]",go slow
528829fbc9155f0118000273,Cicero Ave,41.955093,-87.747349,"[-87.747349, 41.955093]",bumper to bumper
528829fbc9155f0118000274,Pulaski Rd,41.955447,-87.727666,"[-87.727666, 41.955447]",go slow
528829fbc9155f0118000275,Elston Ave,41.954748,-87.720647,"[-87.720647, 41.954748]",straight on no stopping
528829fbc9155f0118000276,Damen Ave,41.963061,-87.679019,"[-87.679019, 41.963061]",go slow
528829fbc9155f0118000277,Ashland Ave,41.955361,-87.669076,"[-87.669076, 41.955361]",straight on no stopping
528829fbc9155f0118000278,Clarendon St,41.963669,-87.649966,"[-87.649966, 41.963669]",straight on no stopping
528829fbc9155f0118000279,Sheridan Rd,41.962457,-87.654755,"[-87.654755, 41.962457]",go slow
528829fbc9155f011800027a,Pulaski Rd,41.962267,-87.727863,"[-87.727863, 41.962267]",go slow
528829fbc9155f011800027b,Milwaukee Ave,41.96815,-87.760968,"[-87.760968, 41.96815]",go slow
528829fbc9155f011800027c,Nagle Ave,41.970016,-87.787986,"[-87.787986, 41.970016]",go slow
528829fbc9155f011800027d,Northwest Hwy,41.984243,-87.784632,"[-87.784632, 41.984243]",straight on no stopping
528829fbc9155f011800027e,Elston Ave,41.975635,-87.752372,"[-87.752372, 41.975635]",go slow
528829fbc9155f011800027f,Kedzie Ave,41.976775,-87.708705,"[-87.708705, 41.976775]",bumper to bumper
528829fbc9155f0118000280,Western Ave,41.976829,-87.689187,"[-87.689187, 41.976829]",straight on no stopping
528829fbc9155f0118000281,Broadway,41.977627,-87.659904,"[-87.659904, 41.977627]",straight on no stopping
528829fbc9155f0118000282,Broadway,41.986182,-87.660145,"[-87.660145, 41.986182]",go slow
528829fbc9155f0118000283,Western Ave,41.992273,-87.689704,"[-87.689704, 41.992273]",go slow
528829fbc9155f0118000284,Rogers Ave,42.013319,-87.680974,"[-87.680974, 42.013319]",go slow
528829fbc9155f0118000285,Clark St,42.017888,-87.67569,"[-87.67569, 42.017888]",straight on no stopping
528829fbc9155f0118000286,Lincoln Ave,41.992962,-87.711563,"[-87.711563, 41.992962]",straight on no stopping
528829fbc9155f0118000287,Kimball Ave,41.992042,-87.714036,"[-87.714036, 41.992042]",bumper to bumper
528829fbc9155f0118000288,Central Ave,41.998732,-87.763298,"[-87.763298, 41.998732]",go slow
528829fbc9155f0118000289,Harlem Ave,41.999165,-87.806776,"[-87.806776, 41.999165]",straight on no stopping
528829fbc9155f011800028a,Racine Ave,41.876982,-87.657007,"[-87.657007, 41.876982]",straight on no stopping
528829fbc9155f011800028b,Wabash Ave,41.879007,-87.626108,"[-87.626108, 41.879007]",bumper to bumper
528829fbc9155f011800028c,Michigan Ave,41.879529,-87.624351,"[-87.624351, 41.879529]",straight on no stopping
528829fbc9155f011800028d,Columbus Dr,41.878842,-87.620705,"[-87.620705, 41.878842]",go slow
528829fbc9155f011800028e,Hamlin Ave,41.882384,-87.720836,"[-87.720836, 41.882384]",straight on no stopping
528829fbc9155f011800028f,Pulaski Rd,41.886148,-87.725824,"[-87.725824, 41.886148]",go slow
528829fbc9155f0118000290,Central Park Ave,41.886115,-87.71603,"[-87.71603, 41.886115]",bumper to bumper
528829fbc9155f0118000291,Homan Ave,41.88602,-87.711158,"[-87.711158, 41.88602]",straight on no stopping
528829fbc9155f0118000292,Kedzie Ave,41.885154,-87.706241,"[-87.706241, 41.885154]",bumper to bumper
528829fbc9155f0118000293,Western Ave,41.885258,-87.686545,"[-87.686545, 41.885258]",go slow
528829fbc9155f0118000294,Damen Ave,41.885313,-87.676747,"[-87.676747, 41.885313]",bumper to bumper
528829fbc9155f0118000295,Halsted St,41.886044,-87.647485,"[-87.647485, 41.886044]",bumper to bumper
528829fbc9155f0118000296,Milwaukee Ave,41.892395,-87.64944,"[-87.64944, 41.892395]",go slow
528829fbc9155f0118000297,Wabash Ave,41.893693,-87.626772,"[-87.626772, 41.893693]",straight on no stopping
528829fbc9155f0118000298,Halsted St,41.897792,-87.647818,"[-87.647818, 41.897792]",go slow
528829fbc9155f0118000299,Homan Ave,41.903995,-87.711714,"[-87.711714, 41.903995]",go slow
528829fbc9155f011800029a,Western Ave,41.903947,-87.687051,"[-87.687051, 41.903947]",go slow
528829fbc9155f011800029b,Clybourn Ave,41.904483,-87.640587,"[-87.640587, 41.904483]",bumper to bumper
528829fbc9155f011800029c,Clark St,41.897747,-87.631275,"[-87.631275, 41.897747]",straight on no stopping
528829fbc9155f011800029d,Wells St,41.912883,-87.634765,"[-87.634765, 41.912883]",go slow
528829fbc9155f011800029e,Sedgwick St,41.912849,-87.638637,"[-87.638637, 41.912849]",bumper to bumper
528829fbc9155f011800029f,Ashland Ave,41.693283,-87.661875,"[-87.661875, 41.693283]",straight on no stopping
528829fbc9155f01180002a0,Nagle Ave,41.975916,-87.787866,"[-87.787866, 41.975916]",bumper to bumper
528829fbc9155f01180002a1,Gunnison St,41.968461,-87.784013,"[-87.784013, 41.968461]",go slow
528829fbc9155f01180002a2,Grand Ave,41.921271,-87.779472,"[-87.779472, 41.921271]",straight on no stopping
528829fbc9155f01180002a3,Fullerton Ave,41.9237,-87.784023,"[-87.784023, 41.9237]",bumper to bumper
528829fbc9155f01180002a4,Belmont Ave,41.938356,-87.783382,"[-87.783382, 41.938356]",go slow
528829fbc9155f01180002a5,Addison St,41.945751,-87.778573,"[-87.778573, 41.945751]",straight on no stopping
528829fbc9155f01180002a6,Irving Park Rd,41.952978,-87.781878,"[-87.781878, 41.952978]",straight on no stopping
528829fbc9155f01180002a7,Diversey Ave,41.930915,-87.792906,"[-87.792906, 41.930915]",go slow
528829fbc9155f01180002a8,Oak Park Ave,41.915365,-87.794984,"[-87.794984, 41.915365]",go slow
528829fbc9155f01180002a9,North Ave,41.908868,-87.804756,"[-87.804756, 41.908868]",go slow
528829fbc9155f01180002aa,North Ave,41.90909,-87.789897,"[-87.789897, 41.90909]",go slow
528829fbc9155f01180002ab,Washington St,41.882936,-87.659747,"[-87.659747, 41.882936]",go slow
528829fbc9155f01180002ac,Randolph St,41.88422,-87.658216,"[-87.658216, 41.88422]",straight on no stopping
528829fbc9155f01180002ad,State St,41.893306,-87.628117,"[-87.628117, 41.893306]",go slow
528829fbc9155f01180002ae,La Salle St,41.893609,-87.63265,"[-87.63265, 41.893609]",go slow
528829fbc9155f01180002af,Dearborn St,41.893431,-87.629699,"[-87.629699, 41.893431]",straight on no stopping
528829fbc9155f01180002b0,Clark St,41.89363,-87.631177,"[-87.631177, 41.89363]",straight on no stopping
528829fbc9155f01180002b1,Wells St,41.89337,-87.634114,"[-87.634114, 41.89337]",bumper to bumper
528829fbc9155f01180002b2,Northwest Hwy,42.004572,-87.818987,"[-87.818987, 42.004572]",go slow
528829fbc9155f01180002b3,26th St,41.844157,-87.731356,"[-87.731356, 41.844157]",bumper to bumper
528829fbc9155f01180002b4,Armitage Ave,41.917095,-87.732056,"[-87.732056, 41.917095]",bumper to bumper
528829fbc9155f01180002b5,La Salle St,41.885449,-87.632438,"[-87.632438, 41.885449]",bumper to bumper
528829fbc9155f01180002b6,Wabash Ave,41.88535,-87.626269,"[-87.626269, 41.88535]",go slow
528829fbc9155f01180002b7,Dearborn St,41.884893,-87.629469,"[-87.629469, 41.884893]",straight on no stopping
528829fbc9155f01180002b8,Clark St,41.885107,-87.630954,"[-87.630954, 41.885107]",bumper to bumper
528829fbc9155f01180002b9,Wells St,41.885249,-87.633916,"[-87.633916, 41.885249]",straight on no stopping
528829fbc9155f01180002ba,Franklin St,41.884874,-87.635389,"[-87.635389, 41.884874]",straight on no stopping
528829fbc9155f01180002bb,Jefferson St,41.8848,-87.642746,"[-87.642746, 41.8848]",bumper to bumper
528829fbc9155f01180002bc,Des Plaines St,41.885696,-87.644242,"[-87.644242, 41.885696]",bumper to bumper
528829fbc9155f01180002bd,95Th St,41.722917,-87.538618,"[-87.538618, 41.722917]",bumper to bumper
528829fbc9155f01180002be,Avenue O,41.690863,-87.540104,"[-87.540104, 41.690863]",straight on no stopping
528829fbc9155f01180002bf,Cottage Grove Ave,41.706017,-87.606829,"[-87.606829, 41.706017]",bumper to bumper
528829fbc9155f01180002c0,Cottage Grove Ave,41.716726,-87.604408,"[-87.604408, 41.716726]",go slow
528829fbc9155f01180002c1,Commercial Ave,41.727211,-87.551189,"[-87.551189, 41.727211]",go slow
528829fbc9155f01180002c2,Cottage Grove Ave,41.764407,-87.605533,"[-87.605533, 41.764407]",bumper to bumper
528829fbc9155f01180002c3,Harlem Ave,41.778426,-87.800934,"[-87.800934, 41.778426]",bumper to bumper
528829fbc9155f01180002c4,Central Ave,41.777058,-87.761684,"[-87.761684, 41.777058]",go slow
528829fbc9155f01180002c5,California Ave,41.778712,-87.69338,"[-87.69338, 41.778712]",go slow
528829fbc9155f01180002c6,Pulaski Rd,41.836244,-87.724337,"[-87.724337, 41.836244]",bumper to bumper
528829fbc9155f01180002c7,Damen Ave,41.851171,-87.675811,"[-87.675811, 41.851171]",straight on no stopping
528829fbc9155f01180002c8,Homan Ave,41.857335,-87.710287,"[-87.710287, 41.857335]",go slow
528829fbc9155f01180002c9,Central Ave,41.875738,-87.764697,"[-87.764697, 41.875738]",straight on no stopping
528829fbc9155f01180002ca,Laramie Ave,41.909168,-87.755815,"[-87.755815, 41.909168]",straight on no stopping
528829fbc9155f01180002cb,Racine Ave,41.92351,-87.658394,"[-87.658394, 41.92351]",bumper to bumper
528829fbc9155f01180002cc,Sacramento Ave,41.923889,-87.70229,"[-87.70229, 41.923889]",go slow
528829fbc9155f01180002cd,Narragansett Ave,41.931002,-87.785687,"[-87.785687, 41.931002]",go slow
528829fbc9155f01180002ce,Pulaski Rd,41.931151,-87.726959,"[-87.726959, 41.931151]",bumper to bumper
528829fbc9155f01180002cf,Halsted St,41.931822,-87.648979,"[-87.648979, 41.931822]",bumper to bumper
528829fbc9155f01180002d0,Milwaukee Ave,41.938251,-87.72247,"[-87.72247, 41.938251]",go slow
528829fbc9155f01180002d1,Broadway,41.946355,-87.646666,"[-87.646666, 41.946355]",go slow
528829fbc9155f01180002d2,Kedzie Ave,41.966963,-87.708429,"[-87.708429, 41.966963]",bumper to bumper
528829fbc9155f01180002d3,East River Rd,41.966794,-87.846567,"[-87.846567, 41.966794]",straight on no stopping
528829fbc9155f01180002d4,East River Rd,41.982087,-87.846432,"[-87.846432, 41.982087]",straight on no stopping
528829fbc9155f01180002d5,Cicero Ave,41.986165,-87.748308,"[-87.748308, 41.986165]",straight on no stopping
528829fbc9155f01180002d6,Lincoln  Ave,41.982351,-87.693821,"[-87.693821, 41.982351]",straight on no stopping
528829fbc9155f01180002d7,Ashland Ave,42.004104,-87.670556,"[-87.670556, 42.004104]",bumper to bumper
528829fbc9155f01180002d8,Leigh Ave,42.010697,-87.772707,"[-87.772707, 42.010697]",bumper to bumper
528829fbc9155f01180002d9,Milwaukee Ave,41.995915,-87.786522,"[-87.786522, 41.995915]",bumper to bumper
528829fbc9155f01180002da,State St,41.836451,-87.626742,"[-87.626742, 41.836451]",bumper to bumper
528829fbc9155f01180002db,Kedzie Ave,41.872254,-87.705864,"[-87.705864, 41.872254]",bumper to bumper
528829fbc9155f01180002dc,Central Park Ave,41.895238,-87.716306,"[-87.716306, 41.895238]",straight on no stopping
528829fbc9155f01180002dd,Pulaski Rd,41.872493,-87.725399,"[-87.725399, 41.872493]",bumper to bumper
528829fbc9155f01180002de,Homan Ave,41.876095,-87.710846,"[-87.710846, 41.876095]",go slow
528829fbc9155f01180002df,Damen Ave,41.884983,-87.676739,"[-87.676739, 41.884983]",go slow
528829fbc9155f01180002e0,Desplaines St,41.891012,-87.644365,"[-87.644365, 41.891012]",straight on no stopping
528829fbc9155f01180002e1,Sacramento Ave,41.893745,-87.70215,"[-87.70215, 41.893745]",bumper to bumper
528829fbc9155f01180002e2,Western Ave,41.909315,-87.687195,"[-87.687195, 41.909315]",bumper to bumper
528829fbc9155f01180002e3,Milwaukee Ave,41.90238,-87.66496,"[-87.66496, 41.90238]",straight on no stopping
528829fbc9155f01180002e4,Fairbanks Ct,41.896368,-87.620359,"[-87.620359, 41.896368]",straight on no stopping
528829fbc9155f01180002e5,Clark St,41.902199,-87.631399,"[-87.631399, 41.902199]",bumper to bumper
528829fbc9155f01180002e6,Pulaski Rd,41.806868,-87.723555,"[-87.723555, 41.806868]",go slow
528829fbc9155f01180002e7,California Ave,41.836927,-87.695017,"[-87.695017, 41.836927]",go slow
528829fbc9155f01180002e8,Lawrence Ave,41.96912,-87.652496,"[-87.652496, 41.96912]",go slow
528829fbc9155f01180002e9,Longwood Dr,41.690212,-87.672221,"[-87.672221, 41.690212]",go slow
528829fbc9155f01180002ea,Irving Park Rd,41.954295,-87.668734,"[-87.668734, 41.954295]",straight on no stopping
528829fbc9155f01180002eb,Congress Pkwy,41.875633,-87.628433,"[-87.628433, 41.875633]",go slow
528829fbc9155f01180002ec,Division St,41.90393,-87.629506,"[-87.629506, 41.90393]",straight on no stopping
528829fbc9155f01180002ed,Grand Ave,41.891671,-87.628113,"[-87.628113, 41.891671]",go slow
528829fbc9155f01180002ee,119th St,41.678058,-87.620552,"[-87.620552, 41.678058]",straight on no stopping
528829fbc9155f01180002ef,Division St,41.903955,-87.627809,"[-87.627809, 41.903955]",go slow
528829fbc9155f01180002f0,130th St,41.659181,-87.568276,"[-87.568276, 41.659181]",straight on no stopping
528829fbc9155f01180002f1,Clark St,41.876698,-87.630742,"[-87.630742, 41.876698]",straight on no stopping
528829fbc9155f01180002f2,California Ave,41.876736,-87.696174,"[-87.696174, 41.876736]",bumper to bumper
528829fbc9155f01180002f3,107th St,41.699481,-87.656564,"[-87.656564, 41.699481]",bumper to bumper
528829fbc9155f01180002f4,115th St,41.684661,-87.670012,"[-87.670012, 41.684661]",go slow
528829fbc9155f01180002f5,122nd St,41.673764,-87.560855,"[-87.560855, 41.673764]",straight on no stopping
528829fbc9155f01180002f6,119th St,41.677257,-87.680696,"[-87.680696, 41.677257]",bumper to bumper
528829fbc9155f01180002f7,115th St,41.684228,-87.702778,"[-87.702778, 41.684228]",go slow
528829fbc9155f01180002f8,63rd St,41.777656,-87.782528,"[-87.782528, 41.777656]",go slow
528829fbc9155f01180002f9,59th St,41.785928,-87.723856,"[-87.723856, 41.785928]",straight on no stopping
528829fbc9155f01180002fa,Pershing Rd,41.822852,-87.691118,"[-87.691118, 41.822852]",bumper to bumper
528829fbc9155f01180002fb,26th St,41.844102,-87.735004,"[-87.735004, 41.844102]",bumper to bumper
528829fbc9155f01180002fc,Cermak Rd,41.851522,-87.726497,"[-87.726497, 41.851522]",straight on no stopping
528829fbc9155f01180002fd,Armitage Ave,41.917529,-87.692627,"[-87.692627, 41.917529]",straight on no stopping
528829fbc9155f01180002fe,Irving Park Rd,41.954273,-87.670146,"[-87.670146, 41.954273]",bumper to bumper
528829fbc9155f01180002ff,Irving Park Rd,41.954006,-87.689792,"[-87.689792, 41.954006]",go slow
528829fbc9155f0118000300,Lawrence Ave,41.968013,-87.748871,"[-87.748871, 41.968013]",go slow
528829fbc9155f0118000301,Higgins Rd,41.988761,-87.854842,"[-87.854842, 41.988761]",go slow
528829fbc9155f0118000302,Foster Ave,41.97567,-87.715464,"[-87.715464, 41.97567]",go slow
528829fbc9155f0118000303,Caldwell Ave,41.991514,-87.754317,"[-87.754317, 41.991514]",straight on no stopping
528829fbc9155f0118000304,31st St,41.838279,-87.628571,"[-87.628571, 41.838279]",straight on no stopping
528829fbc9155f0118000305,Madison St,41.880707,-87.727098,"[-87.727098, 41.880707]",straight on no stopping
528829fbc9155f0118000306,Division St,41.902909,-87.698743,"[-87.698743, 41.902909]",bumper to bumper
528829fbc9155f0118000307,Augusta Blvd,41.899355,-87.689356,"[-87.689356, 41.899355]",bumper to bumper
528829fbc9155f0118000308,Grand Ave,41.891676,-87.627665,"[-87.627665, 41.891676]",bumper to bumper
528829fbc9155f0118000309,California Ave,41.883343,-87.696348,"[-87.696348, 41.883343]",bumper to bumper
528829fbc9155f011800030a,Cicero Ave,41.881365,-87.745317,"[-87.745317, 41.881365]",bumper to bumper
528829fbc9155f011800030b,Ohio St,41.892388,-87.634088,"[-87.634088, 41.892388]",go slow
528829fbc9155f011800030c,115th St,41.6853,-87.624481,"[-87.624481, 41.6853]",go slow
528829fbc9155f011800030d,Ogden Ave,41.864394,-87.687068,"[-87.687068, 41.864394]",straight on no stopping
528829fbc9155f011800030e,Addison St,41.946727,-87.69064,"[-87.69064, 41.946727]",straight on no stopping
528829fbc9155f011800030f,Armitage Ave,41.917591,-87.686072,"[-87.686072, 41.917591]",bumper to bumper
528829fbc9155f0118000310,87th St,41.735341,-87.693452,"[-87.693452, 41.735341]",go slow
528829fbc9155f0118000311,83rd St,41.742583,-87.696869,"[-87.696869, 41.742583]",straight on no stopping
528829fbc9155f0118000312,Montrose Ave,41.961351,-87.68578,"[-87.68578, 41.961351]",straight on no stopping
528829fbc9155f0118000313,Madison St,41.881522,-87.66285,"[-87.66285, 41.881522]",go slow
528829fbc9155f0118000314,Addison Ave,41.94592,-87.763269,"[-87.763269, 41.94592]",straight on no stopping
528829fbc9155f0118000315,Addison Ave,41.945317,-87.804172,"[-87.804172, 41.945317]",go slow
528829fbc9155f0118000316,Austin Ave,41.944582,-87.776451,"[-87.776451, 41.944582]",straight on no stopping
528829fbc9155f0118000317,Austin Ave,41.929097,-87.775895,"[-87.775895, 41.929097]",go slow
528829fbc9155f0118000318,Austin Ave,41.9588,-87.776967,"[-87.776967, 41.9588]",straight on no stopping
528829fbc9155f0118000319,Austin Ave,41.911962,-87.775313,"[-87.775313, 41.911962]",bumper to bumper
528829fbc9155f011800031a,Belmont Ave,41.938587,-87.765389,"[-87.765389, 41.938587]",bumper to bumper
528829fbc9155f011800031b,Belmont Ave,41.937984,-87.811297,"[-87.811297, 41.937984]",bumper to bumper
528829fbc9155f011800031c,Belmont Ave,41.938129,-87.797524,"[-87.797524, 41.938129]",bumper to bumper
528829fbc9155f011800031d,Canal St,41.881585,-87.639674,"[-87.639674, 41.881585]",go slow
528829fbc9155f011800031e,Canfield Ave,41.988233,-87.822826,"[-87.822826, 41.988233]",go slow
528829fbc9155f011800031f,Central Ave,41.944085,-87.766693,"[-87.766693, 41.944085]",bumper to bumper
528829fbc9155f0118000320,Central Ave,41.982967,-87.768342,"[-87.768342, 41.982967]",go slow
528829fbc9155f0118000321,Central Ave,41.925775,-87.766054,"[-87.766054, 41.925775]",straight on no stopping
528829fbc9155f0118000322,Central Ave,41.958566,-87.767179,"[-87.767179, 41.958566]",bumper to bumper
528829fbc9155f0118000323,Central Ave,41.911538,-87.765585,"[-87.765585, 41.911538]",go slow
528829fbc9155f0118000324,Cicero Ave,41.972925,-87.747914,"[-87.747914, 41.972925]",go slow
528829fbc9155f0118000325,Cumberland Ave,41.941973,-87.836292,"[-87.836292, 41.941973]",bumper to bumper
528829fbc9155f0118000326,Cumberland Ave,41.976269,-87.836617,"[-87.836617, 41.976269]",go slow
528829fbc9155f0118000327,Cumberland Ave,41.986101,-87.836581,"[-87.836581, 41.986101]",straight on no stopping
528829fbc9155f0118000328,Cumberland Ave,41.955399,-87.836687,"[-87.836687, 41.955399]",bumper to bumper
528829fbc9155f0118000329,Devon Ave,41.996885,-87.8202,"[-87.8202, 41.996885]",go slow
528829fbc9155f011800032a,Devon Ave,41.997401,-87.782852,"[-87.782852, 41.997401]",go slow
528829fbc9155f011800032b,Diversey Ave,41.930851,-87.797915,"[-87.797915, 41.930851]",straight on no stopping
528829fbc9155f011800032c,Diversey Ave,41.931117,-87.777627,"[-87.777627, 41.931117]",straight on no stopping
528829fbc9155f011800032d,East River Rd,41.987853,-87.846528,"[-87.846528, 41.987853]",bumper to bumper
528829fbc9155f011800032e,East River Rd,41.973131,-87.846512,"[-87.846512, 41.973131]",straight on no stopping
528829fbc9155f011800032f,Elston Ave,41.973886,-87.749542,"[-87.749542, 41.973886]",go slow
528829fbc9155f0118000330,Forest Preserve Ave,41.939787,-87.837966,"[-87.837966, 41.939787]",bumper to bumper
528829fbc9155f0118000331,Forest Preserve Ave,41.957636,-87.799463,"[-87.799463, 41.957636]",go slow
528829fbc9155f0118000332,Foster Ave,41.975575,-87.797008,"[-87.797008, 41.975575]",go slow
528829fbc9155f0118000333,Foster Ave,41.975664,-87.78048,"[-87.78048, 41.975664]",bumper to bumper
528829fbc9155f0118000334,Foster Ave,41.975186,-87.760787,"[-87.760787, 41.975186]",straight on no stopping
528829fbc9155f0118000335,Fullerton Ave,41.923882,-87.77227,"[-87.77227, 41.923882]",go slow
528829fbc9155f0118000336,Grand Ave,41.923538,-87.802753,"[-87.802753, 41.923538]",straight on no stopping
528829fbc9155f0118000337,Harlem Ave,41.933229,-87.806554,"[-87.806554, 41.933229]",go slow
528829fbc9155f0118000338,Harlem Ave,41.94802,-87.807101,"[-87.807101, 41.94802]",go slow
528829fbc9155f0118000339,Harlem Ave,41.91366,-87.805925,"[-87.805925, 41.91366]",straight on no stopping
528829fbc9155f011800033a,Harlem Ave,41.988647,-87.806885,"[-87.806885, 41.988647]",go slow
528829fbc9155f011800033b,Harlem Ave,42.013794,-87.806611,"[-87.806611, 42.013794]",go slow
528829fbc9155f011800033c,Higgins Ave,41.9715,-87.771937,"[-87.771937, 41.9715]",bumper to bumper
528829fbc9155f011800033d,Higgins Ave,41.982088,-87.813919,"[-87.813919, 41.982088]",straight on no stopping
528829fbc9155f011800033e,Irving Park Rd,41.953095,-87.773638,"[-87.773638, 41.953095]",bumper to bumper
528829fbc9155f011800033f,Irving Park Rd,41.952742,-87.799221,"[-87.799221, 41.952742]",bumper to bumper
528829fbc9155f0118000340,Laramie Ave,41.942383,-87.756806,"[-87.756806, 41.942383]",straight on no stopping
528829fbc9155f0118000341,Laramie Ave,41.924963,-87.756176,"[-87.756176, 41.924963]",straight on no stopping
528829fbc9155f0118000342,Laramie Ave,41.912823,-87.755782,"[-87.755782, 41.912823]",bumper to bumper
528829fbc9155f0118000343,Lawrence Ave,41.967757,-87.764167,"[-87.764167, 41.967757]",go slow
528829fbc9155f0118000344,Lincoln Ave,41.988587,-87.704352,"[-87.704352, 41.988587]",bumper to bumper
528829fbc9155f0118000345,Montrose Ave,41.960111,-87.790501,"[-87.790501, 41.960111]",go slow
528829fbc9155f0118000346,Narragansett Ave,41.948239,-87.786356,"[-87.786356, 41.948239]",straight on no stopping
528829fbc9155f0118000347,Narragansett Ave,41.932832,-87.785749,"[-87.785749, 41.932832]",go slow
528829fbc9155f0118000348,Narragansett Ave,41.920893,-87.785358,"[-87.785358, 41.920893]",go slow
528829fbc9155f0118000349,Narragansett Ave,41.962045,-87.786866,"[-87.786866, 41.962045]",straight on no stopping
528829fbc9155f011800034a,Oak Park Ave,41.937284,-87.795671,"[-87.795671, 41.937284]",straight on no stopping
528829fbc9155f011800034b,Peterson Ave,41.990126,-87.750526,"[-87.750526, 41.990126]",go slow
528829fbc9155f011800034c,Touhy Ave,42.011663,-87.808726,"[-87.808726, 42.011663]",bumper to bumper
528829fbc9155f011800034d,Wacker Dr,41.8807,-87.636735,"[-87.636735, 41.8807]",straight on no stopping
528829fbc9155f011800034e,Western Ave,41.986477,-87.689538,"[-87.689538, 41.986477]",bumper to bumper
528829fbc9155f011800034f,Addison Ave,41.94665,-87.70393,"[-87.70393, 41.94665]",bumper to bumper
528829fbc9155f0118000350,Addison Ave,41.946193,-87.741344,"[-87.741344, 41.946193]",go slow
528829fbc9155f0118000351,Armitage Ave,41.917263,-87.71828,"[-87.71828, 41.917263]",bumper to bumper
528829fbc9155f0118000352,Armitage Ave,41.917357,-87.710662,"[-87.710662, 41.917357]",straight on no stopping
528829fbc9155f0118000353,Armitage Ave,41.917017,-87.73874,"[-87.73874, 41.917017]",straight on no stopping
528829fbc9155f0118000354,Belmont Ave,41.939303,-87.710743,"[-87.710743, 41.939303]",bumper to bumper
528829fbc9155f0118000355,Belmont Ave,41.93923,-87.716135,"[-87.716135, 41.93923]",straight on no stopping
528829fbc9155f0118000356,Belmont Ave,41.938878,-87.743194,"[-87.743194, 41.938878]",go slow
528829fbc9155f0118000357,Belmont Ave,41.939398,-87.696701,"[-87.696701, 41.939398]",go slow
528829fbc9155f0118000358,Belmont Ave,41.939113,-87.725535,"[-87.725535, 41.939113]",straight on no stopping
528829fbc9155f0118000359,California Ave,41.980023,-87.699055,"[-87.699055, 41.980023]",bumper to bumper
528829fbc9155f011800035a,California Ave,41.950326,-87.698137,"[-87.698137, 41.950326]",straight on no stopping
528829fbc9155f011800035b,California Ave,41.918317,-87.697223,"[-87.697223, 41.918317]",straight on no stopping
528829fbc9155f011800035c,California Ave,42.016379,-87.699636,"[-87.699636, 42.016379]",bumper to bumper
528829fbc9155f011800035d,Central Park Ave,41.913289,-87.716646,"[-87.716646, 41.913289]",straight on no stopping
528829fbc9155f011800035e,Diversey Ave,41.932037,-87.705896,"[-87.705896, 41.932037]",bumper to bumper
528829fbc9155f011800035f,Diversey Ave,41.931846,-87.722476,"[-87.722476, 41.931846]",straight on no stopping
528829fbc9155f0118000360,Diversey Ave,41.931576,-87.743265,"[-87.743265, 41.931576]",straight on no stopping
528829fbc9155f0118000361,Foster Ave,41.975838,-87.696482,"[-87.696482, 41.975838]",straight on no stopping
528829fbc9155f0118000362,Fullerton Ave,41.924561,-87.720455,"[-87.720455, 41.924561]",straight on no stopping
528829fbc9155f0118000363,Fullerton Ave,41.924266,-87.74431,"[-87.74431, 41.924266]",bumper to bumper
528829fbc9155f0118000364,Fullerton Ave,41.924726,-87.705876,"[-87.705876, 41.924726]",go slow
528829fbc9155f0118000365,Irving Park Rd,41.953576,-87.734092,"[-87.734092, 41.953576]",bumper to bumper
528829fbc9155f0118000366,Irving Park Rd,41.953936,-87.70545,"[-87.70545, 41.953936]",bumper to bumper
528829fbc9155f0118000367,Irving Park Rd,41.953695,-87.724462,"[-87.724462, 41.953695]",go slow
528829fbc9155f0118000368,Kedzie Ave,41.970273,-87.708529,"[-87.708529, 41.970273]",go slow
528829fbc9155f0118000369,Kimball Ave,41.98049,-87.713663,"[-87.713663, 41.98049]",bumper to bumper
528829fbc9155f011800036a,Kimball Ave,41.94751,-87.71274,"[-87.71274, 41.94751]",bumper to bumper
528829fbc9155f011800036b,Kimball Ave,41.92195,-87.712021,"[-87.712021, 41.92195]",go slow
528829fbc9155f011800036c,Kostner Ave,41.921651,-87.736467,"[-87.736467, 41.921651]",go slow
528829fbc9155f011800036d,Lawrence Ave,41.968506,-87.702152,"[-87.702152, 41.968506]",bumper to bumper
528829fbc9155f011800036e,Lawrence Ave,41.968165,-87.734816,"[-87.734816, 41.968165]",bumper to bumper
528829fbc9155f011800036f,Milwaukee Ave,41.931324,-87.711125,"[-87.711125, 41.931324]",straight on no stopping
528829fbc9155f0118000370,Montrose Ave,41.961009,-87.722889,"[-87.722889, 41.961009]",go slow
528829fbc9155f0118000371,North Ave,41.910184,-87.700364,"[-87.700364, 41.910184]",go slow
528829fbc9155f0118000372,North Ave,41.909944,-87.720823,"[-87.720823, 41.909944]",straight on no stopping
528829fbc9155f0118000373,North Ave,41.910066,-87.710829,"[-87.710829, 41.910066]",go slow
528829fbc9155f0118000374,Pulaski Rd,41.918169,-87.72659,"[-87.72659, 41.918169]",straight on no stopping
528829fbc9155f0118000375,Pulaski Rd,41.94889,-87.727471,"[-87.727471, 41.94889]",straight on no stopping
528829fbc9155f0118000376,Roosevelt Rd,41.866196,-87.723436,"[-87.723436, 41.866196]",bumper to bumper
528829fbc9155f0118000377,Addison Ave,41.947109,-87.661464,"[-87.661464, 41.947109]",straight on no stopping
528829fbc9155f0118000378,Addison Ave,41.947284,-87.651946,"[-87.651946, 41.947284]",bumper to bumper
528829fbc9155f0118000379,Addison Ave,41.946768,-87.6857,"[-87.6857, 41.946768]",bumper to bumper
528829fbc9155f011800037a,Armitage Ave,41.91781,-87.674797,"[-87.674797, 41.91781]",go slow
528829fbc9155f011800037b,Armitage Ave,41.918245,-87.644208,"[-87.644208, 41.918245]",straight on no stopping
528829fbc9155f011800037c,Armitage Ave,41.91812,-87.652282,"[-87.652282, 41.91812]",straight on no stopping
528829fbc9155f011800037d,Ashland Ave,41.945925,-87.668832,"[-87.668832, 41.945925]",bumper to bumper
528829fbc9155f011800037e,Ashland Ave,41.974889,-87.669587,"[-87.669587, 41.974889]",go slow
528829fbc9155f011800037f,Belmont Ave,41.939715,-87.667324,"[-87.667324, 41.939715]",go slow
528829fbc9155f0118000380,Belmont Ave,41.939866,-87.657012,"[-87.657012, 41.939866]",bumper to bumper
528829fbc9155f0118000381,Belmont Ave,41.939496,-87.684693,"[-87.684693, 41.939496]",go slow
528829fbc9155f0118000382,Broadway,41.938295,-87.644341,"[-87.644341, 41.938295]",straight on no stopping
528829fbc9155f0118000383,Broadway,41.955468,-87.651123,"[-87.651123, 41.955468]",go slow
528829fbc9155f0118000384,Broadway,41.974157,-87.659809,"[-87.659809, 41.974157]",bumper to bumper
528829fbc9155f0118000385,Bryn Mawr Ave,41.983656,-87.658134,"[-87.658134, 41.983656]",straight on no stopping
528829fbc9155f0118000386,Clark St,41.993674,-87.670135,"[-87.670135, 41.993674]",bumper to bumper
528829fbc9155f0118000387,Clybourn Ave,41.929133,-87.674504,"[-87.674504, 41.929133]",bumper to bumper
528829fbc9155f0118000388,Damen Ave,41.938823,-87.678334,"[-87.678334, 41.938823]",straight on no stopping
528829fbc9155f0118000389,Damen Ave,41.956405,-87.678823,"[-87.678823, 41.956405]",go slow
528829fbc9155f011800038a,Damen Ave,41.970422,-87.679234,"[-87.679234, 41.970422]",go slow
528829fbc9155f011800038b,Damen Ave,41.914612,-87.677552,"[-87.677552, 41.914612]",straight on no stopping
528829fbc9155f011800038c,Diversey Ave,41.932395,-87.669002,"[-87.669002, 41.932395]",go slow
528829fbc9155f011800038d,Foster Ave,41.97636,-87.657362,"[-87.657362, 41.97636]",straight on no stopping
528829fbc9155f011800038e,Fullerton Ave,41.925199,-87.664619,"[-87.664619, 41.925199]",bumper to bumper
528829fbc9155f011800038f,Halsted St,41.919237,-87.648548,"[-87.648548, 41.919237]",go slow
528829fbc9155f0118000390,Irving Park Rd,41.95443,-87.658524,"[-87.658524, 41.95443]",go slow
528829fbc9155f0118000391,Irving Park Rd,41.954136,-87.680217,"[-87.680217, 41.954136]",straight on no stopping
528829fbc9155f0118000392,Lakeview Ave,41.93136,-87.639326,"[-87.639326, 41.93136]",go slow
528829fbc9155f0118000393,Lawrence Ave,41.968951,-87.66443,"[-87.66443, 41.968951]",straight on no stopping
528829fbc9155f0118000394,Lawrence Ave,41.969057,-87.657171,"[-87.657171, 41.969057]",straight on no stopping
528829fbc9155f0118000395,Lawrence Ave,41.968642,-87.687081,"[-87.687081, 41.968642]",bumper to bumper
528829fbc9155f0118000396,Lincoln Ave,41.920951,-87.642481,"[-87.642481, 41.920951]",go slow
528829fbc9155f0118000397,Lincoln Ave,41.960186,-87.68299,"[-87.68299, 41.960186]",bumper to bumper
528829fbc9155f0118000398,Marine Dr,41.971671,-87.650428,"[-87.650428, 41.971671]",go slow
528829fbc9155f0118000399,Milwaukee Ave,41.911246,-87.678799,"[-87.678799, 41.911246]",straight on no stopping
528829fbc9155f011800039a,Montrose Ave,41.961538,-87.673156,"[-87.673156, 41.961538]",go slow
528829fbc9155f011800039b,North Ave,41.910853,-87.652267,"[-87.652267, 41.910853]",bumper to bumper
528829fbc9155f011800039c,Racine Ave,41.942424,-87.659044,"[-87.659044, 41.942424]",bumper to bumper
528829fbc9155f011800039d,Racine Ave,41.927677,-87.65853,"[-87.65853, 41.927677]",straight on no stopping
528829fbc9155f011800039e,Ridge Ave,41.987636,-87.666618,"[-87.666618, 41.987636]",straight on no stopping
528829fbc9155f011800039f,Sheridan Rd,42.00351,-87.660816,"[-87.660816, 42.00351]",bumper to bumper
528829fbc9155f01180003a0,Sheridan Rd,41.972386,-87.654903,"[-87.654903, 41.972386]",straight on no stopping
528829fbc9155f01180003a1,Southport Ave,41.92249,-87.663226,"[-87.663226, 41.92249]",bumper to bumper
528829fbc9155f01180003a2,Western Ave,41.948031,-87.688293,"[-87.688293, 41.948031]",straight on no stopping
528829fbc9155f01180003a3,Western Ave,41.921642,-87.687537,"[-87.687537, 41.921642]",bumper to bumper
528829fbc9155f01180003a4,Western Ave,41.972841,-87.689047,"[-87.689047, 41.972841]",straight on no stopping
528829fbc9155f01180003a5,Western Ave,41.913995,-87.687313,"[-87.687313, 41.913995]",bumper to bumper
528829fbc9155f01180003a6,Ashland Ave,41.870413,-87.666487,"[-87.666487, 41.870413]",bumper to bumper
528829fbc9155f01180003a7,Augusta Blvd,41.898376,-87.773856,"[-87.773856, 41.898376]",straight on no stopping
528829fbc9155f01180003a8,Austin Ave,41.868169,-87.774229,"[-87.774229, 41.868169]",straight on no stopping
528829fbc9155f01180003a9,Austin Ave,41.883496,-87.77476,"[-87.77476, 41.883496]",bumper to bumper
528829fbc9155f01180003aa,Central Ave,41.892407,-87.765299,"[-87.765299, 41.892407]",straight on no stopping
528829fbc9155f01180003ab,Central Park Ave,41.871785,-87.715588,"[-87.715588, 41.871785]",bumper to bumper
528829fbc9155f01180003ac,Cicero Ave,41.869875,-87.744879,"[-87.744879, 41.869875]",bumper to bumper
528829fbc9155f01180003ad,Washington St,41.882972,-87.689807,"[-87.689807, 41.882972]",straight on no stopping
528829fbc9155f01180003ae,Washington St,41.883208,-87.634482,"[-87.634482, 41.883208]",straight on no stopping
528829fbc9155f01180003af,Washington St,41.883107,-87.649602,"[-87.649602, 41.883107]",go slow
528829fbc9155f01180003b0,Washington St,41.881907,-87.724652,"[-87.724652, 41.881907]",go slow
528829fbc9155f01180003b1,Wells St,41.90718,-87.634588,"[-87.634588, 41.90718]",go slow
528829fbc9155f01180003b2,Wells St,41.891353,-87.634063,"[-87.634063, 41.891353]",straight on no stopping
528829fbc9155f01180003b3,Wells St,41.881401,-87.633811,"[-87.633811, 41.881401]",bumper to bumper
528829fbc9155f01180003b4,Western Ave,41.900187,-87.686957,"[-87.686957, 41.900187]",go slow
528829fbc9155f01180003b5,Western Ave,41.893685,-87.68678,"[-87.68678, 41.893685]",straight on no stopping
528829fbc9155f01180003b6,Western Ave,41.876083,-87.686271,"[-87.686271, 41.876083]",bumper to bumper
528829fbc9155f01180003b7,18th St,41.857903,-87.659605,"[-87.659605, 41.857903]",go slow
528829fbc9155f01180003b8,26th St,41.844328,-87.718582,"[-87.718582, 41.844328]",go slow
528829fbc9155f01180003b9,26th St,41.844137,-87.732725,"[-87.732725, 41.844137]",bumper to bumper
528829fbc9155f01180003ba,Damen Ave,41.8702,-87.676347,"[-87.676347, 41.8702]",go slow
528829fbc9155f01180003bb,Division St,41.902488,-87.73753,"[-87.73753, 41.902488]",go slow
528829fbc9155f01180003bc,Division St,41.90223,-87.75738,"[-87.75738, 41.90223]",straight on no stopping
528829fbc9155f01180003bd,Halsted St,41.87346,-87.647091,"[-87.647091, 41.87346]",bumper to bumper
528829fbc9155f01180003be,Harrison St,41.872939,-87.755447,"[-87.755447, 41.872939]",bumper to bumper
528829fbc9155f01180003bf,Kostner Ave,41.908631,-87.736272,"[-87.736272, 41.908631]",go slow
528829fbc9155f01180003c0,Kostner Ave,41.870966,-87.735136,"[-87.735136, 41.870966]",straight on no stopping
528829fbc9155f01180003c1,Kostner Ave,41.884822,-87.735612,"[-87.735612, 41.884822]",straight on no stopping
528829fbc9155f01180003c2,Lake St,41.887117,-87.753983,"[-87.753983, 41.887117]",bumper to bumper
528829fbc9155f01180003c3,Laramie Ave,41.869233,-87.754655,"[-87.754655, 41.869233]",go slow
528829fbc9155f01180003c4,Laramie Ave,41.889649,-87.755407,"[-87.755407, 41.889649]",straight on no stopping
528829fbc9155f01180003c5,Madison St,41.880108,-87.773266,"[-87.773266, 41.880108]",bumper to bumper
528829fbc9155f01180003c6,Madison St,41.880537,-87.741833,"[-87.741833, 41.880537]",go slow
528829fbc9155f01180003c7,Racine Ave,41.871676,-87.656828,"[-87.656828, 41.871676]",straight on no stopping
528829fbc9155f01180003c8,Roosevelt Rd,41.865714,-87.759312,"[-87.759312, 41.865714]",straight on no stopping
528829fbc9155f01180003c9,Roosevelt Rd,41.866377,-87.708143,"[-87.708143, 41.866377]",straight on no stopping
528829fbc9155f01180003ca,26th St,41.845685,-87.620482,"[-87.620482, 41.845685]",straight on no stopping
528829fbc9155f01180003cb,31st St,41.838197,-87.634579,"[-87.634579, 41.838197]",bumper to bumper
528829fbc9155f01180003cc,31st St,41.838327,-87.624762,"[-87.624762, 41.838327]",go slow
528829fbc9155f01180003cd,47th St,41.809005,-87.637985,"[-87.637985, 41.809005]",go slow
528829fbc9155f01180003ce,51st St,41.801796,-87.633948,"[-87.633948, 41.801796]",bumper to bumper
528829fbc9155f01180003cf,59th St,41.787212,-87.634206,"[-87.634206, 41.787212]",bumper to bumper
528829fbc9155f01180003d0,63rd St,41.779917,-87.634498,"[-87.634498, 41.779917]",bumper to bumper
528829fbc9155f01180003d1,63rd St,41.78018,-87.618854,"[-87.618854, 41.78018]",bumper to bumper
528829fbc9155f01180003d2,Adams St,41.879037,-87.658396,"[-87.658396, 41.879037]",bumper to bumper
528829fbc9155f01180003d3,Adams St,41.879284,-87.641796,"[-87.641796, 41.879284]",bumper to bumper
528829fbc9155f01180003d4,Adams St,41.879377,-87.634436,"[-87.634436, 41.879377]",go slow
528829fbc9155f01180003d5,Adams St,41.879125,-87.652799,"[-87.652799, 41.879125]",straight on no stopping
528829fbc9155f01180003d6,Archer Ave,41.852403,-87.635761,"[-87.635761, 41.852403]",bumper to bumper
528829fbc9155f01180003d7,Ashland Ave,41.89604,-87.667289,"[-87.667289, 41.89604]",bumper to bumper
528829fbc9155f01180003d8,Ashland Ave,41.906421,-87.667574,"[-87.667574, 41.906421]",bumper to bumper
528829fbc9155f01180003d9,Ashland Ave,41.876934,-87.666676,"[-87.666676, 41.876934]",bumper to bumper
528829fbc9155f01180003da,Augusta Blvd,41.899087,-87.718638,"[-87.718638, 41.899087]",straight on no stopping
528829fbc9155f01180003db,Augusta Blvd,41.899615,-87.67336,"[-87.67336, 41.899615]",go slow
528829fbc9155f01180003dc,Augusta Blvd,41.899222,-87.703584,"[-87.703584, 41.899222]",straight on no stopping
528829fbc9155f01180003dd,Canal St,41.885079,-87.639827,"[-87.639827, 41.885079]",straight on no stopping
528829fbc9155f01180003de,Central Park Ave,41.891097,-87.716199,"[-87.716199, 41.891097]",straight on no stopping
528829fbc9155f01180003df,Central Park Ave,41.879533,-87.715851,"[-87.715851, 41.879533]",bumper to bumper
528829fbc9155f01180003e0,Cermak Rd,41.852872,-87.620534,"[-87.620534, 41.852872]",bumper to bumper
528829fbc9155f01180003e1,Chicago Ave,41.895439,-87.718427,"[-87.718427, 41.895439]",straight on no stopping
528829fbc9155f01180003e2,Chicago Ave,41.896292,-87.653604,"[-87.653604, 41.896292]",straight on no stopping
528829fbc9155f01180003e3,Chicago Ave,41.895673,-87.693867,"[-87.693867, 41.895673]",bumper to bumper
528829fbc9155f01180003e4,Clark St,41.889469,-87.631064,"[-87.631064, 41.889469]",bumper to bumper
528829fbc9155f01180003e5,Clark St,41.873368,-87.630642,"[-87.630642, 41.873368]",straight on no stopping
528829fbc9155f01180003e6,Clark St,41.881592,-87.630875,"[-87.630875, 41.881592]",straight on no stopping
528829fbc9155f01180003e7,Clark St,41.892773,-87.631157,"[-87.631157, 41.892773]",bumper to bumper
528829fbc9155f01180003e8,Clark St,41.869119,-87.630476,"[-87.630476, 41.869119]",straight on no stopping
528829fbc9155f01180003e9,Clinton St,41.8852,-87.641298,"[-87.641298, 41.8852]",bumper to bumper
528829fbc9155f01180003ea,Clinton St,41.880534,-87.64115,"[-87.64115, 41.880534]",bumper to bumper
528829fbc9155f01180003eb,Columbus Dr,41.87138,-87.620556,"[-87.620556, 41.87138]",bumper to bumper
528829fbc9155f01180003ec,Congress Pkwy,41.875611,-87.630673,"[-87.630673, 41.875611]",bumper to bumper
528829fbc9155f01180003ed,Congress Pkwy,41.875684,-87.626134,"[-87.626134, 41.875684]",go slow
528829fbc9155f01180003ee,Damen Ave,41.895021,-87.677026,"[-87.677026, 41.895021]",bumper to bumper
528829fbc9155f01180003ef,Damen Ave,41.877446,-87.676545,"[-87.676545, 41.877446]",go slow
528829fbc9155f01180003f0,Damen Ave,41.908546,-87.677409,"[-87.677409, 41.908546]",bumper to bumper
528829fbc9155f01180003f1,Damen Ave,41.88276,-87.676677,"[-87.676677, 41.88276]",straight on no stopping
528829fbc9155f01180003f2,Dearborn St,41.889784,-87.629599,"[-87.629599, 41.889784]",go slow
528829fbc9155f01180003f3,Dearborn St,41.880734,-87.629368,"[-87.629368, 41.880734]",straight on no stopping
528829fbc9155f01180003f4,Division St,41.902739,-87.718482,"[-87.718482, 41.902739]",go slow
528829fbc9155f01180003f5,Division St,41.902958,-87.693225,"[-87.693225, 41.902958]",go slow
528829fbc9155f01180003f6,Division St,41.903778,-87.639261,"[-87.639261, 41.903778]",bumper to bumper
528829fbc9155f01180003f7,Division St,41.903168,-87.678437,"[-87.678437, 41.903168]",bumper to bumper
528829fbc9155f01180003f8,Franklin St,41.890003,-87.713444,"[-87.713444, 41.890003]",go slow
528829fbc9155f01180003f9,Garfield Blvd,41.794149,-87.633657,"[-87.633657, 41.794149]",bumper to bumper
528829fbc9155f01180003fa,Grand Ave,41.891001,-87.66523,"[-87.66523, 41.891001]",go slow
528829fbc9155f01180003fb,Grand Ave,41.891791,-87.62091,"[-87.62091, 41.891791]",bumper to bumper
528829fbc9155f01180003fc,Grand Ave,41.905556,-87.724905,"[-87.724905, 41.905556]",straight on no stopping
528829fbc9155f01180003fd,Grand Ave,41.893314,-87.694126,"[-87.694126, 41.893314]",bumper to bumper
528829fbc9155f01180003fe,Grand Ave,41.890693,-87.684779,"[-87.684779, 41.890693]",bumper to bumper
528829fbc9155f01180003ff,Halsted St,41.892362,-87.647604,"[-87.647604, 41.892362]",go slow
528829fbc9155f0118000400,Halsted St,41.876932,-87.647211,"[-87.647211, 41.876932]",bumper to bumper
528829fbc9155f0118000401,Halsted St,41.884845,-87.64745,"[-87.64745, 41.884845]",bumper to bumper
528829fbc9155f0118000402,Homan Ave,41.892668,-87.71135,"[-87.71135, 41.892668]",straight on no stopping
528829fbc9155f0118000403,Homan Ave,41.872269,-87.710736,"[-87.710736, 41.872269]",bumper to bumper
528829fbc9155f0118000404,Indiana Ave,41.853372,-87.622268,"[-87.622268, 41.853372]",bumper to bumper
528829fbc9155f0118000405,Indiana Ave,41.782759,-87.620541,"[-87.620541, 41.782759]",bumper to bumper
528829fbc9155f0118000406,Jackson Blvd,41.877521,-87.688801,"[-87.688801, 41.877521]",bumper to bumper
528829fbc9155f0118000407,Jackson Blvd,41.877258,-87.712307,"[-87.712307, 41.877258]",go slow
528829fbc9155f0118000408,Jackson Blvd,41.877989,-87.643682,"[-87.643682, 41.877989]",bumper to bumper
528829fbc9155f0118000409,Jackson Blvd,41.878111,-87.634405,"[-87.634405, 41.878111]",bumper to bumper
528829fbc9155f011800040a,Jackson Blvd,41.877853,-87.652996,"[-87.652996, 41.877853]",straight on no stopping
528829fbc9155f011800040b,Kedzie Ave,41.892841,-87.706475,"[-87.706475, 41.892841]",straight on no stopping
528829fbc9155f011800040c,Lake St,41.885625,-87.649854,"[-87.649854, 41.885625]",bumper to bumper
528829fbc9155f011800040d,Lake St,41.884665,-87.685501,"[-87.685501, 41.884665]",go slow
528829fbc9155f011800040e,La Salle St,41.890186,-87.632548,"[-87.632548, 41.890186]",bumper to bumper
528829fbc9155f011800040f,La Salle St,41.880972,-87.632336,"[-87.632336, 41.880972]",straight on no stopping
528829fbc9155f0118000410,Madison St,41.881427,-87.668678,"[-87.668678, 41.881427]",go slow
528829fbc9155f0118000411,Madison St,41.881657,-87.65456,"[-87.65456, 41.881657]",straight on no stopping
528829fbc9155f0118000412,Madison St,41.881836,-87.642708,"[-87.642708, 41.881836]",straight on no stopping
528829fbc9155f0118000413,Michigan Ave,41.866034,-87.624114,"[-87.624114, 41.866034]",bumper to bumper
528829fbc9155f0118000414,Michigan Ave,41.859365,-87.623968,"[-87.623968, 41.859365]",go slow
528829fbc9155f0118000415,Michigan Ave,41.838343,-87.623444,"[-87.623444, 41.838343]",bumper to bumper
528829fbc9155f0118000416,Michigan Ave,41.795074,-87.622477,"[-87.622477, 41.795074]",go slow
528829fbc9155f0118000417,Michigan Ave,41.782937,-87.622164,"[-87.622164, 41.782937]",go slow
528829fbc9155f0118000418,Michigan Ave,41.873905,-87.624218,"[-87.624218, 41.873905]",go slow
528829fbc9155f0118000419,Michigan Ave,41.881365,-87.624349,"[-87.624349, 41.881365]",go slow
528829fbc9155f011800041a,Michigan Ave,41.893982,-87.624231,"[-87.624231, 41.893982]",bumper to bumper
528829fbc9155f011800041b,Milwaukee Ave,41.903687,-87.667,"[-87.667, 41.903687]",bumper to bumper
528829fbc9155f011800041c,Ogden Ave,41.894073,-87.656489,"[-87.656489, 41.894073]",straight on no stopping
528829fbc9155f011800041d,Ohio St,41.892439,-87.630272,"[-87.630272, 41.892439]",bumper to bumper
528829fbc9155f011800041e,Ohio St,41.892579,-87.621433,"[-87.621433, 41.892579]",bumper to bumper
528829fbc9155f011800041f,Orleans St,41.902872,-87.637416,"[-87.637416, 41.902872]",straight on no stopping
528829fbc9155f0118000420,Pulaski Rd,41.898079,-87.726166,"[-87.726166, 41.898079]",go slow
528829fbc9155f0118000421,Pulaski Rd,41.875691,-87.725497,"[-87.725497, 41.875691]",go slow
528829fbc9155f0118000422,Pulaski Rd,41.881938,-87.725706,"[-87.725706, 41.881938]",bumper to bumper
528829fbc9155f0118000423,Pulaski Rd,41.907466,-87.726445,"[-87.726445, 41.907466]",bumper to bumper
528829fbc9155f0118000424,Racine Ave,41.880487,-87.657103,"[-87.657103, 41.880487]",bumper to bumper
528829fbc9155f0118000425,Randolph St,41.884466,-87.634637,"[-87.634637, 41.884466]",go slow
528829fbc9155f0118000426,Randolph St,41.884359,-87.650176,"[-87.650176, 41.884359]",straight on no stopping
528829fbc9155f0118000427,Randolph St,41.884431,-87.643422,"[-87.643422, 41.884431]",straight on no stopping
528829fbc9155f0118000428,Sacramento Ave,41.886224,-87.70135,"[-87.70135, 41.886224]",go slow
528829fbc9155f0118000429,Sacramento Ave,41.879204,-87.701155,"[-87.701155, 41.879204]",straight on no stopping
528829fbc9155f011800042a,State St,41.859198,-87.627233,"[-87.627233, 41.859198]",bumper to bumper
528829fbc9155f011800042b,State St,41.854398,-87.627117,"[-87.627117, 41.854398]",bumper to bumper
528829fbc9155f011800042c,State St,41.838301,-87.626773,"[-87.626773, 41.838301]",go slow
528829fbc9155f011800042d,State St,41.796139,-87.62574,"[-87.62574, 41.796139]",bumper to bumper
52882d28c9155f5d70000001,41.88682729,-87.6269017
528829fbc9155f011800042e,State St,41.784837,-87.625446,"[-87.625446, 41.784837]",bumper to bumper
528829fbc9155f011800042f,State St,41.896924,-87.628206,"[-87.628206, 41.896924]",straight on no stopping
528829fbc9155f0118000430,State St,41.873424,-87.627576,"[-87.627576, 41.873424]",bumper to bumper
528829fbc9155f0118000431,Van Buren St,41.87665,-87.648742,"[-87.648742, 41.87665]",bumper to bumper
528829fbc9155f0118000432,Wabash Ave,41.890636,-87.626681,"[-87.626681, 41.890636]",bumper to bumper
528829fbc9155f0118000433,Wabash Ave,41.88133,-87.626189,"[-87.626189, 41.88133]",bumper to bumper
528829fbc9155f0118000434,Wacker Dr,41.878077,-87.636914,"[-87.636914, 41.878077]",bumper to bumper
528829fbc9155f0118000435,Wacker Dr,41.886817,-87.630054,"[-87.630054, 41.886817]",straight on no stopping
528829fbc9155f0118000436,Wacker Dr,41.884486,-87.637068,"[-87.637068, 41.884486]",go slow
528829fbc9155f0118000437,Warren Blvd,41.882074,-87.687892,"[-87.687892, 41.882074]",straight on no stopping
528829fbc9155f0118000438,Warren Blvd,41.882362,-87.668041,"[-87.668041, 41.882362]",straight on no stopping
528829fbc9155f0118000439,31st St,41.838156,-87.689438,"[-87.689438, 41.838156]",bumper to bumper
528829fbc9155f011800043a,31st St,41.836974,-87.719101,"[-87.719101, 41.836974]",bumper to bumper
528829fbc9155f011800043b,Ashland Ave,41.863688,-87.666307,"[-87.666307, 41.863688]",straight on no stopping
528829fbc9155f011800043c,Blue Island Ave,41.847901,-87.677408,"[-87.677408, 41.847901]",bumper to bumper
528829fbc9155f011800043d,Central Park Ave,41.852621,-87.715027,"[-87.715027, 41.852621]",straight on no stopping
528829fbc9155f011800043e,Central Park Ave,41.846067,-87.714837,"[-87.714837, 41.846067]",straight on no stopping
528829fbc9155f011800043f,Cermak Rd,41.851632,-87.717386,"[-87.717386, 41.851632]",bumper to bumper
528829fbc9155f0118000440,Cermak Rd,41.851353,-87.738835,"[-87.738835, 41.851353]",straight on no stopping
528829fbc9155f0118000441,Halsted St,41.851922,-87.646473,"[-87.646473, 41.851922]",straight on no stopping
528829fbc9155f0118000442,Homan Ave,41.83815,-87.709739,"[-87.709739, 41.83815]",go slow
528829fbc9155f0118000443,Kedzie Ave,41.831089,-87.704652,"[-87.704652, 41.831089]",bumper to bumper
528829fbc9155f0118000444,Kostner Ave,41.854103,-87.734588,"[-87.734588, 41.854103]",bumper to bumper
528829fbc9155f0118000445,Ogden Ave,41.857111,-87.707844,"[-87.707844, 41.857111]",go slow
528829fbc9155f0118000446,Pulaski Rd,41.846235,-87.72462,"[-87.72462, 41.846235]",straight on no stopping
528829fbc9155f0118000447,Pulaski Rd,41.852808,-87.724789,"[-87.724789, 41.852808]",bumper to bumper
528829fbc9155f0118000448,Roosevelt Rd,41.866765,-87.67545,"[-87.67545, 41.866765]",straight on no stopping
528829fbc9155f0118000449,Roosevelt Rd,41.866958,-87.659,"[-87.659, 41.866958]",bumper to bumper
528829fbc9155f011800044a,Western Ave,41.856527,-87.685756,"[-87.685756, 41.856527]",go slow
528829fbc9155f011800044b,47th St,41.808188,-87.699833,"[-87.699833, 41.808188]",straight on no stopping
528829fbc9155f011800044c,47th St,41.807974,-87.715402,"[-87.715402, 41.807974]",straight on no stopping
528829fbc9155f011800044d,51st St,41.800719,-87.710993,"[-87.710993, 41.800719]",bumper to bumper
528829fbc9155f011800044e,55th St,41.792767,-87.76029,"[-87.76029, 41.792767]",bumper to bumper
528829fbc9155f011800044f,59th St,41.786225,-87.704698,"[-87.704698, 41.786225]",bumper to bumper
528829fbc9155f0118000450,63rd St,41.777719,-87.778939,"[-87.778939, 41.777719]",bumper to bumper
528829fbc9155f0118000451,63rd St,41.778536,-87.73304,"[-87.73304, 41.778536]",straight on no stopping
528829fbc9155f0118000452,63rd St,41.779187,-87.688569,"[-87.688569, 41.779187]",straight on no stopping
528829fbc9155f0118000453,71st St,41.764348,-87.70478,"[-87.70478, 41.764348]",straight on no stopping
528829fbc9155f0118000454,79th St,41.749395,-87.724323,"[-87.724323, 41.749395]",go slow
528829fbc9155f0118000455,87th St,41.7348,-87.724651,"[-87.724651, 41.7348]",straight on no stopping
528829fbc9155f0118000456,Archer Ave,41.793573,-87.77629,"[-87.77629, 41.793573]",straight on no stopping
528829fbc9155f0118000457,Archer Ave,41.792242,-87.78702,"[-87.78702, 41.792242]",straight on no stopping
528829fbc9155f0118000458,Archer Ave,41.815505,-87.701939,"[-87.701939, 41.815505]",bumper to bumper
528829fbc9155f0118000459,Archer Ave,41.813362,-87.705427,"[-87.705427, 41.813362]",go slow
528829fbc9155f011800045a,California Ave,41.780847,-87.69344,"[-87.69344, 41.780847]",bumper to bumper
528829fbc9155f011800045b,California Ave,41.824905,-87.694671,"[-87.694671, 41.824905]",straight on no stopping
528829fbc9155f011800045c,Cicero Ave,41.814595,-87.743349,"[-87.743349, 41.814595]",go slow
528829fbc9155f011800045d,Cicero Ave,41.746457,-87.741218,"[-87.741218, 41.746457]",go slow
528829fbc9155f011800045e,Cicero Ave,41.752545,-87.741477,"[-87.741477, 41.752545]",go slow
528829fbc9155f011800045f,Columbus Ave,41.738019,-87.718381,"[-87.718381, 41.738019]",bumper to bumper
528829fbc9155f0118000460,Elston Ave,41.962199,-87.73154,"[-87.73154, 41.962199]",straight on no stopping
528829fbc9155f0118000461,Grand Ave,41.891218,-87.645288,"[-87.645288, 41.891218]",straight on no stopping
528829fbc9155f0118000462,Harlem Ave,41.783408,-87.80116,"[-87.80116, 41.783408]",straight on no stopping
528829fbc9155f0118000463,Kedzie Ave,41.80691,-87.703942,"[-87.703942, 41.80691]",straight on no stopping
528829fbc9155f0118000464,Kedzie Ave,41.762976,-87.702744,"[-87.702744, 41.762976]",bumper to bumper
528829fbc9155f0118000465,Lake St,41.88529,-87.722446,"[-87.722446, 41.88529]",bumper to bumper
528829fbc9155f0118000466,Lake St,41.885733,-87.63502,"[-87.63502, 41.885733]",bumper to bumper
528829fbc9155f0118000467,Marquette St,41.771809,-87.694212,"[-87.694212, 41.771809]",straight on no stopping
528829fbc9155f0118000468,Marquette Rd,41.771311,-87.727968,"[-87.727968, 41.771311]",straight on no stopping
528829fbc9155f0118000469,Narragansett Ave,41.778562,-87.781296,"[-87.781296, 41.778562]",go slow
528829fbc9155f011800046a,Ontario St,41.893383,-87.621457,"[-87.621457, 41.893383]",straight on no stopping
528829fbc9155f011800046b,Pulaski Rd,41.816892,-87.723904,"[-87.723904, 41.816892]",go slow
528829fbc9155f011800046c,Pulaski Rd,41.797723,-87.72329,"[-87.72329, 41.797723]",bumper to bumper
528829fbc9155f011800046d,Pulaski Rd,41.73879,-87.721569,"[-87.721569, 41.73879]",go slow
528829fbc9155f011800046e,Western Ave,41.827315,-87.684942,"[-87.684942, 41.827315]",bumper to bumper
528829fbc9155f011800046f,26th St,41.845422,-87.6394,"[-87.6394, 41.845422]",bumper to bumper
528829fbc9155f0118000470,31st St,41.837896,-87.657173,"[-87.657173, 41.837896]",straight on no stopping
528829fbc9155f0118000471,35th St,41.830349,-87.678909,"[-87.678909, 41.830349]",straight on no stopping
528829fbc9155f0118000472,63rd St,41.779574,-87.657079,"[-87.657079, 41.779574]",straight on no stopping
528829fbc9155f0118000473,75th St,41.758139,-87.630684,"[-87.630684, 41.758139]",go slow
528829fbc9155f0118000474,79th St,41.750277,-87.669454,"[-87.669454, 41.750277]",straight on no stopping
528829fbc9155f0118000475,83rd St,41.742964,-87.671446,"[-87.671446, 41.742964]",go slow
528829fbc9155f0118000476,83rd St,41.743578,-87.629307,"[-87.629307, 41.743578]",bumper to bumper
528829fbc9155f0118000477,Archer Ave,41.832267,-87.674585,"[-87.674585, 41.832267]",straight on no stopping
528829fbc9155f0118000478,Ashland Ave,41.813049,-87.665083,"[-87.665083, 41.813049]",go slow
528829fbc9155f0118000479,Ashland Ave,41.796974,-87.664663,"[-87.664663, 41.796974]",straight on no stopping
528829fbc9155f011800047a,Ashland Ave,41.7445,-87.663291,"[-87.663291, 41.7445]",go slow
528829fbc9155f011800047b,Damen Ave,41.760212,-87.673413,"[-87.673413, 41.760212]",straight on no stopping
528829fbc9155f011800047c,Damen Ave,41.83206,-87.675321,"[-87.675321, 41.83206]",bumper to bumper
528829fbc9155f011800047d,Halsted St,41.836075,-87.646231,"[-87.646231, 41.836075]",straight on no stopping
528829fbc9155f011800047e,Halsted St,41.741618,-87.64378,"[-87.64378, 41.741618]",bumper to bumper
528829fbc9155f011800047f,Loomis St,41.739048,-87.658288,"[-87.658288, 41.739048]",bumper to bumper
528829fbc9155f0118000480,Marquette Rd,41.772283,-87.657646,"[-87.657646, 41.772283]",straight on no stopping
528829fbc9155f0118000481,Morgan St,41.828474,-87.65091,"[-87.65091, 41.828474]",bumper to bumper
528829fbc9155f0118000482,Morgan St,41.791415,-87.649947,"[-87.649947, 41.791415]",straight on no stopping
528829fbc9155f0118000483,Pershing Rd,41.823185,-87.662505,"[-87.662505, 41.823185]",go slow
528829fbc9155f0118000484,Racine Ave,41.810881,-87.655209,"[-87.655209, 41.810881]",go slow
528829fbc9155f0118000485,Racine Ave,41.770301,-87.654254,"[-87.654254, 41.770301]",straight on no stopping
528829fbc9155f0118000486,Racine Ave,41.859764,-87.65648,"[-87.65648, 41.859764]",go slow
528829fbc9155f0118000487,Western Ave,41.78592,-87.683819,"[-87.683819, 41.78592]",bumper to bumper
528829fbc9155f0118000488,31st St,41.838445,-87.615498,"[-87.615498, 41.838445]",straight on no stopping
528829fbc9155f0118000489,Pershing Rd,41.82387,-87.614241,"[-87.614241, 41.82387]",straight on no stopping
528829fbc9155f011800048a,43rd St,41.816788,-87.608238,"[-87.608238, 41.816788]",bumper to bumper
528829fbc9155f011800048b,47th St,41.809405,-87.615129,"[-87.615129, 41.809405]",straight on no stopping
528829fbc9155f011800048c,51st St,41.802583,-87.583711,"[-87.583711, 41.802583]",go slow
528829fbc9155f011800048d,71st St,41.766026,-87.58112,"[-87.58112, 41.766026]",bumper to bumper
528829fbc9155f011800048e,79th St,41.751887,-87.554734,"[-87.554734, 41.751887]",bumper to bumper
528829fbc9155f011800048f,Burley Ave,41.739248,-87.54536,"[-87.54536, 41.739248]",straight on no stopping
528829fbc9155f0118000490,Commercial Ave,41.738684,-87.551457,"[-87.551457, 41.738684]",go slow
528829fbc9155f0118000491,Cottage Grove Ave,41.825153,-87.607512,"[-87.607512, 41.825153]",bumper to bumper
528829fbc9155f0118000492,Cottage Grove Ave,41.788454,-87.606097,"[-87.606097, 41.788454]",straight on no stopping
528829fbc9155f0118000493,Jeffery Ave,41.774091,-87.57604,"[-87.57604, 41.774091]",go slow
528829fbc9155f0118000494,Jeffery Ave,41.763008,-87.576233,"[-87.576233, 41.763008]",straight on no stopping
528829fbc9155f0118000495,Jeffery Ave,41.747333,-87.575907,"[-87.575907, 41.747333]",go slow
528829fbc9155f0118000496,Dr Martin Luther King Jr Dr,41.821807,-87.616942,"[-87.616942, 41.821807]",straight on no stopping
528829fbc9155f0118000497,Dr Martin Luther King Jr Dr,41.742807,-87.614706,"[-87.614706, 41.742807]",go slow
528829fbc9155f0118000498,Lake Park Ave,41.796495,-87.587413,"[-87.587413, 41.796495]",go slow
528829fbc9155f0118000499,Midway Plaissance,41.78652,-87.596845,"[-87.596845, 41.78652]",bumper to bumper
528829fbc9155f011800049a,Stony Island Ave,41.785625,-87.586582,"[-87.586582, 41.785625]",go slow
528829fbc9155f011800049b,87th St,41.735581,-87.679036,"[-87.679036, 41.735581]",straight on no stopping
528829fbc9155f011800049c,Caldwell Ave,42.000958,-87.774562,"[-87.774562, 42.000958]",bumper to bumper
528829fbc9155f011800049d,Cicero Ave,41.994184,-87.748337,"[-87.748337, 41.994184]",straight on no stopping
528829fbc9155f011800049e,Devon Ave,41.997323,-87.758573,"[-87.758573, 41.997323]",bumper to bumper
528829fbc9155f011800049f,Montrose Ave,41.960698,-87.749607,"[-87.749607, 41.960698]",straight on no stopping
528829fbc9155f01180004a0,Pulaski Rd,41.973067,-87.728161,"[-87.728161, 41.973067]",bumper to bumper
528829fbc9155f01180004a1,107th St,41.699831,-87.626661,"[-87.626661, 41.699831]",straight on no stopping
528829fbc9155f01180004a2,111th St,41.692571,-87.624189,"[-87.624189, 41.692571]",straight on no stopping
528829fbc9155f01180004a3,115th St,41.685103,-87.640375,"[-87.640375, 41.685103]",go slow
528829fbc9155f01180004a4,119th St,41.677599,-87.656654,"[-87.656654, 41.677599]",straight on no stopping
528829fbc9155f01180004a5,127th St,41.663388,-87.618884,"[-87.618884, 41.663388]",go slow
528829fbc9155f01180004a6,130th St,41.659124,-87.612421,"[-87.612421, 41.659124]",bumper to bumper
528829fbc9155f01180004a7,Cottage Grove Ave,41.698187,-87.608616,"[-87.608616, 41.698187]",straight on no stopping
528829fbc9155f01180004a8,Halsted St,41.700823,-87.642645,"[-87.642645, 41.700823]",go slow
528829fbc9155f01180004a9,Halsted St,41.665826,-87.641508,"[-87.641508, 41.665826]",straight on no stopping
528829fbc9155f01180004aa,Dr Martin Luther King Jr Dr,41.693802,-87.613403,"[-87.613403, 41.693802]",bumper to bumper
528829fbc9155f01180004ab,Michigan Ave,41.705358,-87.620496,"[-87.620496, 41.705358]",straight on no stopping
528829fbc9155f01180004ac,Wentworth Ave,41.687214,-87.627744,"[-87.627744, 41.687214]",bumper to bumper
528829fbc9155f01180004ad,103rd St,41.706956,-87.639881,"[-87.639881, 41.706956]",bumper to bumper
528829fbc9155f01180004ae,112th St,41.69183,-87.531879,"[-87.531879, 41.69183]",go slow
528829fbc9155f01180004af,130th St,41.659177,-87.552112,"[-87.552112, 41.659177]",straight on no stopping
528829fbc9155f01180004b0,87th St,41.73739,-87.550512,"[-87.550512, 41.73739]",bumper to bumper
528829fbc9155f01180004b1,87th St,41.737064,-87.575072,"[-87.575072, 41.737064]",straight on no stopping
528829fbc9155f01180004b2,95th St,41.722709,-87.55587,"[-87.55587, 41.722709]",bumper to bumper
528829fbc9155f01180004b3,95th St,41.722445,-87.577141,"[-87.577141, 41.722445]",bumper to bumper
528829fbc9155f01180004b4,Avenue O,41.696434,-87.54009,"[-87.54009, 41.696434]",bumper to bumper
528829fbc9155f01180004b5,Jeffery Ave,41.731433,-87.575581,"[-87.575581, 41.731433]",bumper to bumper
528829fbc9155f01180004b6,Jeffery Ave,41.720377,-87.575308,"[-87.575308, 41.720377]",go slow
528829fbc9155f01180004b7,Dr Martin Luther King Jr Dr,41.723931,-87.614195,"[-87.614195, 41.723931]",go slow
528829fbc9155f01180004b8,Macknaw Ave,41.735654,-87.543033,"[-87.543033, 41.735654]",bumper to bumper
528829fbc9155f01180004b9,Michigan Ave,41.711481,-87.619985,"[-87.619985, 41.711481]",straight on no stopping
528829fbc9155f01180004ba,103rd St,41.706174,-87.702769,"[-87.702769, 41.706174]",bumper to bumper
528829fbc9155f01180004bb,103rd St,41.706445,-87.677175,"[-87.677175, 41.706445]",go slow
528829fbc9155f01180004bc,103rd St,41.706811,-87.654128,"[-87.654128, 41.706811]",go slow
528829fbc9155f01180004bd,107th St,41.699096,-87.6777,"[-87.6777, 41.699096]",go slow
528829fbc9155f01180004be,111th St,41.691254,-87.724362,"[-87.724362, 41.691254]",straight on no stopping
528829fbc9155f01180004bf,111th St,41.691591,-87.698873,"[-87.698873, 41.691591]",bumper to bumper
528829fbc9155f01180004c0,115th St,41.684346,-87.695367,"[-87.695367, 41.684346]",go slow
528829fbc9155f01180004c1,87th  St,41.736141,-87.642399,"[-87.642399, 41.736141]",go slow
528829fbc9155f01180004c2,95th ST,41.721653,-87.629162,"[-87.629162, 41.721653]",straight on no stopping
528829fbc9155f01180004c3,95th St,41.721244,-87.660284,"[-87.660284, 41.721244]",bumper to bumper
528829fbc9155f01180004c4,Pulaski Rd,41.707206,-87.720975,"[-87.720975, 41.707206]",bumper to bumper
528829fbc9155f01180004c5,Western Ave,41.701118,-87.681455,"[-87.681455, 41.701118]",straight on no stopping
528829fbc9155f01180004c6,Western Ave,41.685379,-87.680954,"[-87.680954, 41.685379]",straight on no stopping
528829fbc9155f01180004c7,Stony Island Ave,41.757869,-87.585712,"[-87.585712, 41.757869]",bumper to bumper
528829fbc9155f01180004c8,95th St,41.722773,-87.550305,"[-87.550305, 41.722773]",bumper to bumper
528829fbc9155f01180004c9,Vincennes Ave,41.761077,-87.629988,"[-87.629988, 41.761077]",go slow
528829fbc9155f01180004ca,Western Ave,41.804938,-87.684364,"[-87.684364, 41.804938]",straight on no stopping
528829fbc9155f01180004cb,South Chicago Ave,41.739994,-87.569589,"[-87.569589, 41.739994]",bumper to bumper
528829fbc9155f01180004cc,Michigan Ave,41.887944,-87.624537,"[-87.624537, 41.887944]",bumper to bumper
528829fbc9155f01180004cd,Michigan Lower Ave,41.888071,-87.624601,"[-87.624601, 41.888071]",straight on no stopping
528829fbc9155f01180004ce,Wabash Ave,41.888062,-87.626842,"[-87.626842, 41.888062]",bumper to bumper
528829fbc9155f01180004cf,State St,41.887471,-87.628001,"[-87.628001, 41.887471]",straight on no stopping
528829fbc9155f01180004d0,Dearborn St,41.886932,-87.629531,"[-87.629531, 41.886932]",go slow
528829fcc9155f01180004d1,Clark St,41.886935,-87.631008,"[-87.631008, 41.886935]",bumper to bumper
528829fcc9155f01180004d2,La Salle St,41.886928,-87.632484,"[-87.632484, 41.886928]",go slow
528829fcc9155f01180004d3,Wells St,41.886932,-87.633964,"[-87.633964, 41.886932]",straight on no stopping
528829fcc9155f01180004d4,Franklin St,41.886855,-87.635441,"[-87.635441, 41.886855]",straight on no stopping
528829fcc9155f01180004d5,Lake St,41.885725,-87.636864,"[-87.636864, 41.885725]",go slow
528829fcc9155f01180004d6,Randolph St,41.884455,-87.637906,"[-87.637906, 41.884455]",straight on no stopping
528829fcc9155f01180004d7,Washington St,41.883192,-87.638103,"[-87.638103, 41.883192]",bumper to bumper
528829fcc9155f01180004d8,Madison St,41.881895,-87.638745,"[-87.638745, 41.881895]",bumper to bumper
528829fcc9155f01180004d9,Monroe St,41.880605,-87.638285,"[-87.638285, 41.880605]",straight on no stopping
528829fcc9155f01180004da,Adams St,41.879353,-87.636437,"[-87.636437, 41.879353]",go slow
528829fcc9155f01180004db,Jackson Blvd,41.878068,-87.637659,"[-87.637659, 41.878068]",straight on no stopping
528829fcc9155f01180004dc,Van Buren St,41.876771,-87.639623,"[-87.639623, 41.876771]",bumper to bumper
528829fcc9155f01180004dd,Wacker Dr,41.876342,-87.636323,"[-87.636323, 41.876342]",bumper to bumper
528829fcc9155f01180004de,Wacker Dr (lower),41.876142,-87.636377,"[-87.636377, 41.876142]",bumper to bumper
528829fcc9155f01180004df,Franklin St,41.875561,-87.635138,"[-87.635138, 41.875561]",bumper to bumper
528829fcc9155f01180004e0,Wells St,41.876584,-87.633684,"[-87.633684, 41.876584]",straight on no stopping
528829fcc9155f01180004e1,Financial PL,41.87559,-87.633082,"[-87.633082, 41.87559]",straight on no stopping
528829fcc9155f01180004e2,La Salle St,41.876358,-87.631755,"[-87.631755, 41.876358]",straight on no stopping
528829fcc9155f01180004e3,Federal St,41.875841,-87.629701,"[-87.629701, 41.875841]",bumper to bumper
528829fcc9155f01180004e4,Dearborn St,41.876483,-87.629253,"[-87.629253, 41.876483]",straight on no stopping
528829fcc9155f01180004e5,Plymouth CT,41.876735,-87.628733,"[-87.628733, 41.876735]",go slow
528829fcc9155f01180004e6,State St,41.876904,-87.627651,"[-87.627651, 41.876904]",go slow
528829fcc9155f01180004e7,Wabash Ave,41.876452,-87.626044,"[-87.626044, 41.876452]",go slow
528829fcc9155f01180004e8,Michigan Ave,41.876241,-87.624273,"[-87.624273, 41.876241]",straight on no stopping
528829fcc9155f01180004e9,Congress Plaza Dr,41.876222,-87.623366,"[-87.623366, 41.876222]",go slow
528829fcc9155f01180004ea,Jackson Dr,41.87831,-87.622407,"[-87.622407, 41.87831]",bumper to bumper
528829fcc9155f01180004eb,Monroe St,41.88085,-87.622687,"[-87.622687, 41.88085]",bumper to bumper
528829fcc9155f01180004ec,Randolph St,41.884434,-87.623595,"[-87.623595, 41.884434]",bumper to bumper
528829fcc9155f01180004ed,Lake St,41.885784,-87.622306,"[-87.622306, 41.885784]",bumper to bumper
528829fcc9155f01180004ee,South Water Lower St,41.88673,-87.623929,"[-87.623929, 41.88673]",go slow
528829fcc9155f01180004ef,South Water Upper Ave,41.886919,-87.621577,"[-87.621577, 41.886919]",bumper to bumper
528829fcc9155f01180004f0,Wacker(upper) Dr,41.888169,-87.62409,"[-87.62409, 41.888169]",go slow
528829fcc9155f01180004f1,Wacker Lower Dr,41.888302,-87.623405,"[-87.623405, 41.888302]",bumper to bumper
528829fcc9155f01180004f2,Stony Island Ave,41.764923,-87.585887,"[-87.585887, 41.764923]",go slow
528829fcc9155f01180004f3,Cornell Dr,41.778752,-87.585085,"[-87.585085, 41.778752]",go slow
528829fcc9155f01180004f4,57th Dr,41.792663,-87.582231,"[-87.582231, 41.792663]",go slow
528829fcc9155f01180004f5,Lake Shore Dr,41.797484,-87.580352,"[-87.580352, 41.797484]",bumper to bumper
528829fcc9155f01180004f6,Coast Guard Dr,41.777523,-87.575589,"[-87.575589, 41.777523]",go slow
528829fcc9155f01180004f7,Jeffery Ave,41.767951,-87.576347,"[-87.576347, 41.767951]",bumper to bumper
528829fcc9155f01180004f8,Ashland Ave,41.834721,-87.665668,"[-87.665668, 41.834721]",go slow
528829fcc9155f01180004f9,Ashland Ave,41.853135,-87.666031,"[-87.666031, 41.853135]",straight on no stopping
528829fcc9155f01180004fa,109th St,41.696116,-87.632637,"[-87.632637, 41.696116]",go slow
528829fcc9155f01180004fb,97th St,41.71796,-87.632971,"[-87.632971, 41.71796]",straight on no stopping
528829fcc9155f01180004fc,101st St,41.710698,-87.632871,"[-87.632871, 41.710698]",go slow
528829fcc9155f01180004fd,Granville Ave,41.994513,-87.663898,"[-87.663898, 41.994513]",go slow
528829fcc9155f01180004fe,Lake Shore Dr,41.787818,-87.577818,"[-87.577818, 41.787818]",straight on no stopping
528829fcc9155f01180004ff,Western Ave (frontage rd),41.941149,-87.688219,"[-87.688219, 41.941149]",bumper to bumper
